DataType=double
version=3
OpenSimVersion=4.5
endheader
time	foot_tibia_rz	tibia_femur_rz	tibia_float1_ty
0	0	0	0
0.001	-2.504539018128729e-05	7.265913362852246e-05	-0.0176247838462511
0.002	-9.467794169411756e-05	0.0002733481853370943	-0.01773823254667731
0.003	-0.0002081306624723296	0.0005997383575571349	-0.01773262896262202
0.004	-0.0003654256119524603	0.001051878533234129	-0.01772138873549264
0.005	-0.0005666039043784885	0.001629868464652002	-0.01770556204800791
0.006	-0.0008117197843659379	0.002333840861615926	-0.01768516281950311
0.007	-0.001100840625668837	0.003163961363910782	-0.01766019564493479
0.008	-0.00143404699851229	0.004120428714729273	-0.01763066560330871
0.009000000000000001	-0.001811432751503088	0.005203474971955527	-0.01759657746270253
0.01	-0.002233105107779305	0.006413365756232306	-0.01755793698953091
0.011	-0.002699184775634938	0.007750400536438575	-0.01751475002245916
0.012	-0.003209806073849472	0.009214912953201647	-0.01746702295402645
0.013	-0.003765117072017179	0.01080727118123359	-0.01741476242320025
0.014	-0.004365279746191395	0.0125278783313413	-0.01735797558920721
0.015	-0.005010470150205144	0.01437717289308015	-0.01729666979283883
0.016	-0.005700878603054049	0.01635562921909118	-0.01723085322435245
0.017	-0.006436709892791469	0.01846375805232685	-0.01716053420258262
0.018	-0.007218183497396915	0.02070210709740852	-0.0170857217728984
0.019	-0.008045533823147787	0.02307126163753659	-0.01700642578426299
0.02	-0.008919010461060001	0.0255718451984726	-0.01692265624046663
0.021	-0.009838878462003653	0.02820452026122323	-0.01683442388336788
0.022	-0.01080541863116383	0.03096998902522384	-0.01674174007045232
0.023	-0.01181892784255825	0.0338689942239338	-0.0166446175301821
0.024	-0.01287971937439922	0.03690231999495356	-0.01654306833004706
0.025	-0.01398812326609505	0.04007079280680873	-0.01643710697977769
0.026	-0.01514448669783707	0.04337528244492569	-0.01632674748233515
0.027	-0.01634917439367761	0.0468167030592448	-0.01621200586865362
0.028	-0.01760256904917646	0.05039601427634998	-0.01609289796877431
0.029	-0.01890507178467558	0.05411422237897189	-0.01596944218638847
0.03	-0.02025710262543432	0.05797238155615855	-0.01584165619848594
0.031	-0.02165910100983599	0.0619715952273796	-0.01570956037796562
0.032	-0.02311152632707638	0.06611301744433573	-0.01557317583321608
0.033	-0.02461485848574988	0.07039785437428324	-0.01543252464036163
0.034	-0.02616959851489725	0.07482736586907165	-0.01528763089412371
0.035	-0.02777626919918129	0.07940286712436456	-0.0151385201297518
0.036	-0.02943541574996356	0.08412573043380907	-0.01498521923846337
0.037	-0.03114760651417498	0.08899738704323738	-0.01482775719435469
0.038	-0.03291343372302388	0.09401932911038902	-0.01466616486178024
0.039	-0.03473351428270566	0.09919311177596865	-0.01450047475153967
0.04	-0.0366084906094285	0.1045203553522632	-0.01433072201436082
0.041	-0.03853903151125323	0.1100027476360278	-0.01415694392745227
0.042	-0.04052583311938092	0.1156420463527287	-0.01397918032962226
0.043	-0.04256961987173179	0.1214400817397885	-0.01379747364583284
0.044	-0.04467114555183675	0.1273987592769653	-0.01361186954575557
0.045	-0.04683119438628384	0.1335200625725937	-0.01342241637802501
0.046	-0.04905058220417092	0.1398060564149833	-0.01322916547152713
0.047	-0.05133015766223711	0.1462588899988736	-0.01303217281602904
0.048	-0.05367080353966289	0.1528808003376921	-0.01283149742182338
0.049	-0.05607343810668301	0.1596741158728069	-0.01262720279247343
0.05	-0.05853901657155564	0.1666412602920287	-0.01241935632030064
0.051	-0.06106853261063031	0.1737847565701763	-0.0122080313618769
0.052	-0.06366301998666662	0.1811072312456269	-0.01199330510399131
0.053	-0.06632355426079285	0.1886114189474369	-0.0117752613350862
0.054	-0.06905125460393585	0.1963001671888148	-0.01155398936696523
0.055	-0.07184728571385152	0.2041764414435621	-0.0113295850884216
0.056	-0.07471285984430177	0.2122433305232435	-0.01110215175605976
0.057	-0.07764923895333142	0.2205040522739674	-0.01087180011862174
0.058	-0.08065773697796914	0.2289619596127044	-0.01063864908490798
0.059	-0.08373972224313425	0.2376205469243342	-0.01040282669906379
0.06	-0.08689662001293622	0.2464834568417594	-0.01016447071081334
0.061	-0.09012991519297334	0.2555544874326058	-0.009923729767954886
0.062	-0.09344115519266563	0.264837599817257	-0.009680763748004433
0.063	-0.09683195295702476	0.2743369262440359	-0.009435745254350545
0.064	-0.1003039901776458	0.2840567786484736	-0.009188860706803617
0.065	-0.1038590206930081	0.2940016577245208	-0.008940311616099924
0.066	-0.1074988113885323	0.304176060721128	-0.007612754936905959
0.067	-0.1112252274056127	0.3145846081301061	-0.007244469342085717
0.068	-0.1150407086584351	0.325233712851712	-0.00705302619180219
0.06900000000000001	-0.1189473325362822	0.3361287320264907	-0.006857360263896248
0.07000000000000001	-0.1229472582053993	0.3472752339664492	-0.006657652768365844
0.07100000000000001	-0.1270427430719517	0.3586790452440882	-0.006454553894143655
0.07200000000000001	-0.131236147729174	0.370346264014692	-0.006248700986874195
0.073	-0.1355299411484105	0.3822832739986446	-0.00604072775259811
0.074	-0.1399267061495595	0.3944967592308442	-0.005831272590082478
0.075	-0.1444291451500863	0.4069937195790839	-0.005620987521363551
0.076	-0.14904008618791	0.4197814870233927	-0.005410546000555717
0.077	-0.1537624892083002	0.4328677426750807	-0.005200650911494118
0.078	-0.1585994525980686	0.4462605344966241	-0.004992042623027593
0.079	-0.1635542199413995	0.4599682956604184	-0.004785507181595874
0.08	-0.1686301869601046	0.4739998634544911	-0.004581885441415747
0.081	-0.1738309085863471	0.4883644986049491	-0.004382082383573289
0.082	-0.1791601060971043	0.5030719048360341	-0.004187077661556053
0.083	-0.184621674215967	0.5181322484268414	-0.003997937429369779
0.08400000000000001	-0.1902196880580527	0.5335561774457184	-0.003815826973608072
0.08500000000000001	-0.1959584097564455	0.5493548402454244	-0.003642025479971604
0.08600000000000001	-0.2018422945619765	0.5655399026797117	-0.003477942786130621
0.08700000000000001	-0.207875996150114	0.5821235633493211	-0.003325137855836674
0.08799999999999999	-0.2140643707968634	0.5991185659960118	-0.003185340236967857
0.089	-0.2204124799968697	0.6165382079291594	-0.00306047479351716
0.09	-0.2269255909879157	0.6343963430814318	-0.002952689227453521
0.091	-0.233609174512881	0.6527073779377571	-0.002864386314335264
0.092	-0.2404688989885632	0.6714862581533684	-0.002798259824617039
0.093	-0.2475106200561027	0.6907484431601315	-0.002757335909294328
0.094	-0.2547403642555203	0.7105098654431105	-0.002745019026420723
0.095	-0.2621643052933147	0.7307868704410643	-0.002765143780190828
0.096	-0.2697887310548602	0.7515961321785838	-0.002822030851014627
0.097	-0.2776199991531283	0.7729545387747916	-0.002920547515843842
0.098	-0.2856644784077537	0.7948790409082461	-0.003066169393395425
0.099	-0.2939284732269903	0.8173864551838976	-0.003265040014662325
0.1	-0.3024181274443705	0.8404932132096199	-0.00352402000405908
0.101	-0.3111393037813754	0.8642150461493311	-0.003850713525909684
0.102	-0.3200974348236982	0.8885665937233468	-0.004253449177510293
0.103	-0.3292973412803654	0.9135609262495735	-0.004741170871792053
0.104	-0.3387430133952445	0.9392089684873856	-0.005323148900715562
0.105	-0.3484373516332677	0.9655188145439526	-0.006008282251527932
0.106	-0.3583818625794868	0.9924949222366407	-0.006803258804181533
0.107	-0.3685763022999055	1.020137164389413	-0.007706281931330002
0.108	-0.3790182322937753	1.048439636447022	-0.008658299159371058
0.109	-0.3897035836959945	1.077392305792053	-0.01061720772405034
0.11	-0.4006262940203101	1.106980033043182	-0.01207976188213242
0.111	-0.4117762884565099	1.137176914743735	-0.01372050470175084
0.112	-0.4231402845892454	1.167948609203076	-0.01554487275387261
0.113	-0.4347015874769631	1.199251780665933	-0.01755832191544536
0.114	-0.4464401243137196	1.231034182621225	-0.01975526452514422
0.115	-0.4583325757399395	1.263234999816941	-0.02212569958996271
0.116	-0.4703526749405358	1.295785634921237	-0.02466187012478511
0.117	-0.4824717532754932	1.328611145972149	-0.02735140206027441
0.118	-0.4946595419951521	1.361632365362993	-0.03018166153535358
0.119	-0.506885101493895	1.394768360081906	-0.03312242850434897
0.12	-0.5191173274027604	1.427937762769987	-0.03615685895978878
0.121	-0.5313257038395878	1.461060755542182	-0.03926693879062318
0.122	-0.5434810582681958	1.494061058239478	-0.04243394330644487
0.123	-0.5555562021061072	1.526867614135402	-0.04563904817351018
0.124	-0.5675264225343917	1.559415881907757	-0.04886387845614008
0.125	-nan(ind)	nan	nan
0.126	nan	-nan(ind)	-nan(ind)
0.127	nan	-nan(ind)	-nan(ind)
0.128	nan	-nan(ind)	-nan(ind)
0.129	nan	-nan(ind)	-nan(ind)
0.13	nan	-nan(ind)	-nan(ind)
0.131	nan	-nan(ind)	-nan(ind)
0.132	nan	-nan(ind)	-nan(ind)
0.133	nan	-nan(ind)	-nan(ind)
0.134	nan	-nan(ind)	-nan(ind)
0.135	nan	-nan(ind)	-nan(ind)
0.136	nan	-nan(ind)	-nan(ind)
0.137	nan	-nan(ind)	-nan(ind)
0.138	nan	-nan(ind)	-nan(ind)
0.139	nan	-nan(ind)	-nan(ind)
0.14	nan	-nan(ind)	-nan(ind)
0.141	nan	-nan(ind)	-nan(ind)
0.142	nan	-nan(ind)	-nan(ind)
0.143	nan	-nan(ind)	-nan(ind)
0.144	-nan(ind)	nan	nan
0.145	-nan(ind)	nan	nan
0.146	-nan(ind)	nan	nan
0.147	-nan(ind)	nan	nan
0.148	-nan(ind)	nan	nan
0.149	-nan(ind)	nan	nan
0.15	-nan(ind)	nan	nan
0.151	-nan(ind)	nan	nan
0.152	-nan(ind)	nan	nan
0.153	-nan(ind)	nan	nan
0.154	-nan(ind)	nan	nan
0.155	-nan(ind)	nan	nan
0.156	-nan(ind)	nan	nan
0.157	-nan(ind)	nan	nan
0.158	-nan(ind)	nan	nan
0.159	-nan(ind)	nan	nan
0.16	-nan(ind)	nan	nan
0.161	-nan(ind)	nan	nan
0.162	-nan(ind)	nan	nan
0.163	-nan(ind)	nan	nan
0.164	-nan(ind)	nan	nan
0.165	-nan(ind)	nan	nan
0.166	-nan(ind)	nan	nan
0.167	-nan(ind)	nan	nan
0.168	-nan(ind)	nan	nan
0.169	-nan(ind)	nan	nan
0.17	-nan(ind)	nan	nan
0.171	-nan(ind)	nan	nan
0.172	-nan(ind)	nan	nan
0.173	-nan(ind)	nan	nan
0.174	-nan(ind)	nan	nan
0.175	-nan(ind)	nan	nan
0.176	-nan(ind)	nan	nan
0.177	-nan(ind)	nan	nan
0.178	-nan(ind)	nan	nan
0.179	-nan(ind)	nan	nan
0.18	-nan(ind)	nan	nan
0.181	-nan(ind)	nan	nan
0.182	-nan(ind)	nan	nan
0.183	-nan(ind)	nan	nan
0.184	-nan(ind)	nan	nan
0.185	-nan(ind)	nan	nan
0.186	-nan(ind)	nan	nan
0.187	-nan(ind)	nan	nan
0.188	-nan(ind)	nan	nan
0.189	-nan(ind)	nan	nan
0.19	-nan(ind)	nan	nan
0.191	-nan(ind)	nan	nan
0.192	-nan(ind)	nan	nan
0.193	-nan(ind)	nan	nan
0.194	-nan(ind)	nan	nan
0.195	-nan(ind)	nan	nan
0.196	-nan(ind)	nan	nan
0.197	-nan(ind)	nan	nan
0.198	-nan(ind)	nan	nan
0.199	-nan(ind)	nan	nan
0.2	-nan(ind)	nan	nan
0.201	-nan(ind)	nan	nan
0.202	-nan(ind)	nan	nan
0.203	-nan(ind)	nan	nan
0.204	-nan(ind)	nan	nan
0.205	-nan(ind)	nan	nan
0.206	-nan(ind)	nan	nan
0.207	-nan(ind)	nan	nan
0.208	-nan(ind)	nan	nan
0.209	-nan(ind)	nan	nan
0.21	-nan(ind)	nan	nan
0.211	-nan(ind)	nan	nan
0.212	-nan(ind)	nan	nan
0.213	-nan(ind)	nan	nan
0.214	-nan(ind)	nan	nan
0.215	-nan(ind)	nan	nan
0.216	-nan(ind)	nan	nan
0.217	-nan(ind)	nan	nan
0.218	-nan(ind)	nan	nan
0.219	-nan(ind)	nan	nan
0.22	-nan(ind)	nan	nan
0.221	-nan(ind)	nan	nan
0.222	-nan(ind)	nan	nan
0.223	-nan(ind)	nan	nan
0.224	-nan(ind)	nan	nan
0.225	-nan(ind)	nan	nan
0.226	-nan(ind)	nan	nan
0.227	-nan(ind)	nan	nan
0.228	-nan(ind)	nan	nan
0.229	-nan(ind)	nan	nan
0.23	-nan(ind)	nan	nan
0.231	-nan(ind)	nan	nan
0.232	-nan(ind)	nan	nan
0.233	-nan(ind)	nan	nan
0.234	-nan(ind)	nan	nan
0.235	-nan(ind)	nan	nan
0.236	-nan(ind)	nan	nan
0.237	-nan(ind)	nan	nan
0.238	-nan(ind)	nan	nan
0.239	-nan(ind)	nan	nan
0.24	-nan(ind)	nan	nan
0.241	-nan(ind)	nan	nan
0.242	-nan(ind)	nan	nan
0.243	-nan(ind)	nan	nan
0.244	-nan(ind)	nan	nan
0.245	-nan(ind)	nan	nan
0.246	-nan(ind)	nan	nan
0.247	-nan(ind)	nan	nan
0.248	-nan(ind)	nan	nan
0.249	-nan(ind)	nan	nan
0.25	-nan(ind)	nan	nan
0.251	-nan(ind)	nan	nan
0.252	-nan(ind)	nan	nan
0.253	-nan(ind)	nan	nan
0.254	-nan(ind)	nan	nan
0.255	-nan(ind)	nan	nan
0.256	-nan(ind)	nan	nan
0.257	-nan(ind)	nan	nan
0.258	-nan(ind)	nan	nan
0.259	-nan(ind)	nan	nan
0.26	-nan(ind)	nan	nan
0.261	-nan(ind)	nan	nan
0.262	-nan(ind)	nan	nan
0.263	-nan(ind)	nan	nan
0.264	-nan(ind)	nan	nan
0.265	-nan(ind)	nan	nan
0.266	-nan(ind)	nan	nan
0.267	-nan(ind)	nan	nan
0.268	-nan(ind)	nan	nan
0.269	-nan(ind)	nan	nan
0.27	-nan(ind)	nan	nan
0.271	-nan(ind)	nan	nan
0.272	-nan(ind)	nan	nan
0.273	-nan(ind)	nan	nan
0.274	-nan(ind)	nan	nan
0.275	-nan(ind)	nan	nan
0.276	-nan(ind)	nan	nan
0.277	-nan(ind)	nan	nan
0.278	-nan(ind)	nan	nan
0.279	-nan(ind)	nan	nan
0.28	-nan(ind)	nan	nan
0.281	-nan(ind)	nan	nan
0.282	-nan(ind)	nan	nan
0.283	-nan(ind)	nan	nan
0.284	-nan(ind)	nan	nan
0.285	-nan(ind)	nan	nan
0.286	-nan(ind)	nan	nan
0.287	-nan(ind)	nan	nan
0.288	-nan(ind)	nan	nan
0.289	-nan(ind)	nan	nan
0.29	-nan(ind)	nan	nan
0.291	-nan(ind)	nan	nan
0.292	-nan(ind)	nan	nan
0.293	-nan(ind)	nan	nan
0.294	-nan(ind)	nan	nan
0.295	-nan(ind)	nan	nan
0.296	-nan(ind)	nan	nan
0.297	-nan(ind)	nan	nan
0.298	-nan(ind)	nan	nan
0.299	-nan(ind)	nan	nan
0.3	-nan(ind)	nan	nan
0.301	-nan(ind)	nan	nan
0.302	-nan(ind)	nan	nan
0.303	-nan(ind)	nan	nan
0.304	-nan(ind)	nan	nan
0.305	-nan(ind)	nan	nan
0.306	-nan(ind)	nan	nan
0.307	-nan(ind)	nan	nan
0.308	-nan(ind)	nan	nan
0.309	-nan(ind)	nan	nan
0.31	-nan(ind)	nan	nan
0.311	-nan(ind)	nan	nan
0.312	-nan(ind)	nan	nan
0.313	-nan(ind)	nan	nan
0.314	-nan(ind)	nan	nan
0.315	-nan(ind)	nan	nan
0.316	-nan(ind)	nan	nan
0.317	-nan(ind)	nan	nan
0.318	-nan(ind)	nan	nan
0.319	-nan(ind)	nan	nan
0.32	-nan(ind)	nan	nan
0.321	-nan(ind)	nan	nan
0.322	-nan(ind)	nan	nan
0.323	-nan(ind)	nan	nan
0.324	-nan(ind)	nan	nan
0.325	-nan(ind)	nan	nan
0.326	-nan(ind)	nan	nan
0.327	-nan(ind)	nan	nan
0.328	-nan(ind)	nan	nan
0.329	-nan(ind)	nan	nan
0.33	-nan(ind)	nan	nan
0.331	-nan(ind)	nan	nan
0.332	-nan(ind)	nan	nan
0.333	-nan(ind)	nan	nan
0.334	-nan(ind)	nan	nan
0.335	-nan(ind)	nan	nan
0.336	-nan(ind)	nan	nan
0.337	-nan(ind)	nan	nan
0.338	-nan(ind)	nan	nan
0.339	-nan(ind)	nan	nan
0.34	-nan(ind)	nan	nan
0.341	-nan(ind)	nan	nan
0.342	-nan(ind)	nan	nan
0.343	-nan(ind)	nan	nan
0.344	-nan(ind)	nan	nan
0.345	-nan(ind)	nan	nan
0.346	-nan(ind)	nan	nan
0.347	-nan(ind)	nan	nan
0.348	-nan(ind)	nan	nan
0.349	-nan(ind)	nan	nan
0.35	-nan(ind)	nan	nan
0.351	-nan(ind)	nan	nan
0.352	-nan(ind)	nan	nan
0.353	-nan(ind)	nan	nan
0.354	-nan(ind)	nan	nan
0.355	-nan(ind)	nan	nan
0.356	-nan(ind)	nan	nan
0.357	-nan(ind)	nan	nan
0.358	-nan(ind)	nan	nan
0.359	-nan(ind)	nan	nan
0.36	-nan(ind)	nan	nan
0.361	-nan(ind)	nan	nan
0.362	-nan(ind)	nan	nan
0.363	-nan(ind)	nan	nan
0.364	-nan(ind)	nan	nan
0.365	-nan(ind)	nan	nan
0.366	-nan(ind)	nan	nan
0.367	-nan(ind)	nan	nan
0.368	-nan(ind)	nan	nan
0.369	-nan(ind)	nan	nan
0.37	-nan(ind)	nan	nan
0.371	-nan(ind)	nan	nan
0.372	-nan(ind)	nan	nan
0.373	-nan(ind)	nan	nan
0.374	-nan(ind)	nan	nan
0.375	-nan(ind)	nan	nan
0.376	-nan(ind)	nan	nan
0.377	-nan(ind)	nan	nan
0.378	-nan(ind)	nan	nan
0.379	-nan(ind)	nan	nan
0.38	-nan(ind)	nan	nan
0.381	-nan(ind)	nan	nan
0.382	-nan(ind)	nan	nan
0.383	-nan(ind)	nan	nan
0.384	-nan(ind)	nan	nan
0.385	-nan(ind)	nan	nan
0.386	-nan(ind)	nan	nan
0.387	-nan(ind)	nan	nan
0.388	-nan(ind)	nan	nan
0.389	-nan(ind)	nan	nan
0.39	-nan(ind)	nan	nan
0.391	-nan(ind)	nan	nan
0.392	-nan(ind)	nan	nan
0.393	-nan(ind)	nan	nan
0.394	-nan(ind)	nan	nan
0.395	-nan(ind)	nan	nan
0.396	-nan(ind)	nan	nan
0.397	-nan(ind)	nan	nan
0.398	-nan(ind)	nan	nan
0.399	-nan(ind)	nan	nan
0.4	-nan(ind)	nan	nan
0.401	-nan(ind)	nan	nan
0.402	-nan(ind)	nan	nan
0.403	-nan(ind)	nan	nan
0.404	-nan(ind)	nan	nan
0.405	-nan(ind)	nan	nan
0.406	-nan(ind)	nan	nan
0.407	-nan(ind)	nan	nan
0.408	-nan(ind)	nan	nan
0.409	-nan(ind)	nan	nan
0.41	-nan(ind)	nan	nan
0.411	-nan(ind)	nan	nan
0.412	-nan(ind)	nan	nan
0.413	-nan(ind)	nan	nan
0.414	-nan(ind)	nan	nan
0.415	-nan(ind)	nan	nan
0.416	-nan(ind)	nan	nan
0.417	-nan(ind)	nan	nan
0.418	-nan(ind)	nan	nan
0.419	-nan(ind)	nan	nan
0.42	-nan(ind)	nan	nan
0.421	-nan(ind)	nan	nan
0.422	-nan(ind)	nan	nan
0.423	-nan(ind)	nan	nan
0.424	-nan(ind)	nan	nan
0.425	-nan(ind)	nan	nan
0.426	-nan(ind)	nan	nan
0.427	-nan(ind)	nan	nan
0.428	-nan(ind)	nan	nan
0.429	-nan(ind)	nan	nan
0.43	-nan(ind)	nan	nan
0.431	-nan(ind)	nan	nan
0.432	-nan(ind)	nan	nan
0.433	-nan(ind)	nan	nan
0.434	-nan(ind)	nan	nan
0.435	-nan(ind)	nan	nan
0.436	-nan(ind)	nan	nan
0.437	-nan(ind)	nan	nan
0.438	-nan(ind)	nan	nan
0.439	-nan(ind)	nan	nan
0.44	-nan(ind)	nan	nan
0.441	-nan(ind)	nan	nan
0.442	-nan(ind)	nan	nan
0.443	-nan(ind)	nan	nan
0.444	-nan(ind)	nan	nan
0.445	-nan(ind)	nan	nan
0.446	-nan(ind)	nan	nan
0.447	-nan(ind)	nan	nan
0.448	-nan(ind)	nan	nan
0.449	-nan(ind)	nan	nan
0.45	-nan(ind)	nan	nan
0.451	-nan(ind)	nan	nan
0.452	-nan(ind)	nan	nan
0.453	-nan(ind)	nan	nan
0.454	-nan(ind)	nan	nan
0.455	-nan(ind)	nan	nan
0.456	-nan(ind)	nan	nan
0.457	-nan(ind)	nan	nan
0.458	-nan(ind)	nan	nan
0.459	-nan(ind)	nan	nan
0.46	-nan(ind)	nan	nan
0.461	-nan(ind)	nan	nan
0.462	-nan(ind)	nan	nan
0.463	-nan(ind)	nan	nan
0.464	-nan(ind)	nan	nan
0.465	-nan(ind)	nan	nan
0.466	-nan(ind)	nan	nan
0.467	-nan(ind)	nan	nan
0.468	-nan(ind)	nan	nan
0.469	-nan(ind)	nan	nan
0.47	-nan(ind)	nan	nan
0.471	-nan(ind)	nan	nan
0.472	-nan(ind)	nan	nan
0.473	-nan(ind)	nan	nan
0.474	-nan(ind)	nan	nan
0.475	-nan(ind)	nan	nan
0.476	-nan(ind)	nan	nan
0.477	-nan(ind)	nan	nan
0.478	-nan(ind)	nan	nan
0.479	-nan(ind)	nan	nan
0.48	-nan(ind)	nan	nan
0.481	-nan(ind)	nan	nan
0.482	-nan(ind)	nan	nan
0.483	-nan(ind)	nan	nan
0.484	-nan(ind)	nan	nan
0.485	-nan(ind)	nan	nan
0.486	-nan(ind)	nan	nan
0.487	-nan(ind)	nan	nan
0.488	-nan(ind)	nan	nan
0.489	-nan(ind)	nan	nan
0.49	-nan(ind)	nan	nan
0.491	-nan(ind)	nan	nan
0.492	-nan(ind)	nan	nan
0.493	-nan(ind)	nan	nan
0.494	-nan(ind)	nan	nan
0.495	-nan(ind)	nan	nan
0.496	-nan(ind)	nan	nan
0.497	-nan(ind)	nan	nan
0.498	-nan(ind)	nan	nan
0.499	-nan(ind)	nan	nan
0.5	-nan(ind)	nan	nan
0.501	-nan(ind)	nan	nan
0.502	-nan(ind)	nan	nan
0.503	-nan(ind)	nan	nan
0.504	-nan(ind)	nan	nan
0.505	-nan(ind)	nan	nan
0.506	-nan(ind)	nan	nan
0.507	-nan(ind)	nan	nan
0.508	-nan(ind)	nan	nan
0.509	-nan(ind)	nan	nan
0.51	-nan(ind)	nan	nan
0.511	-nan(ind)	nan	nan
0.512	-nan(ind)	nan	nan
0.513	-nan(ind)	nan	nan
0.514	-nan(ind)	nan	nan
0.515	-nan(ind)	nan	nan
0.516	-nan(ind)	nan	nan
0.517	-nan(ind)	nan	nan
0.518	-nan(ind)	nan	nan
0.519	-nan(ind)	nan	nan
0.52	-nan(ind)	nan	nan
0.521	-nan(ind)	nan	nan
0.522	-nan(ind)	nan	nan
0.523	-nan(ind)	nan	nan
0.524	-nan(ind)	nan	nan
0.525	-nan(ind)	nan	nan
0.526	-nan(ind)	nan	nan
0.527	-nan(ind)	nan	nan
0.528	-nan(ind)	nan	nan
0.529	-nan(ind)	nan	nan
0.53	-nan(ind)	nan	nan
0.531	-nan(ind)	nan	nan
0.532	-nan(ind)	nan	nan
0.533	-nan(ind)	nan	nan
0.534	-nan(ind)	nan	nan
0.535	-nan(ind)	nan	nan
0.536	-nan(ind)	nan	nan
0.537	-nan(ind)	nan	nan
0.538	-nan(ind)	nan	nan
0.539	-nan(ind)	nan	nan
0.54	-nan(ind)	nan	nan
0.541	-nan(ind)	nan	nan
0.542	-nan(ind)	nan	nan
0.543	-nan(ind)	nan	nan
0.544	-nan(ind)	nan	nan
0.545	-nan(ind)	nan	nan
0.546	-nan(ind)	nan	nan
0.547	-nan(ind)	nan	nan
0.548	-nan(ind)	nan	nan
0.549	-nan(ind)	nan	nan
0.55	-nan(ind)	nan	nan
0.551	-nan(ind)	nan	nan
0.552	-nan(ind)	nan	nan
0.553	-nan(ind)	nan	nan
0.554	-nan(ind)	nan	nan
0.555	-nan(ind)	nan	nan
0.556	-nan(ind)	nan	nan
0.5570000000000001	-nan(ind)	nan	nan
0.5580000000000001	-nan(ind)	nan	nan
0.5590000000000001	-nan(ind)	nan	nan
0.5600000000000001	-nan(ind)	nan	nan
0.5610000000000001	-nan(ind)	nan	nan
0.5620000000000001	-nan(ind)	nan	nan
0.5630000000000001	-nan(ind)	nan	nan
0.5640000000000001	-nan(ind)	nan	nan
0.5650000000000001	-nan(ind)	nan	nan
0.5660000000000001	-nan(ind)	nan	nan
0.5670000000000001	-nan(ind)	nan	nan
0.5680000000000001	-nan(ind)	nan	nan
0.5690000000000001	-nan(ind)	nan	nan
0.5700000000000001	-nan(ind)	nan	nan
0.5710000000000001	-nan(ind)	nan	nan
0.5720000000000001	-nan(ind)	nan	nan
0.5730000000000001	-nan(ind)	nan	nan
0.5740000000000001	-nan(ind)	nan	nan
0.5750000000000001	-nan(ind)	nan	nan
0.5760000000000001	-nan(ind)	nan	nan
0.577	-nan(ind)	nan	nan
0.578	-nan(ind)	nan	nan
0.579	-nan(ind)	nan	nan
0.58	-nan(ind)	nan	nan
0.581	-nan(ind)	nan	nan
0.582	-nan(ind)	nan	nan
0.583	-nan(ind)	nan	nan
0.584	-nan(ind)	nan	nan
0.585	-nan(ind)	nan	nan
0.586	-nan(ind)	nan	nan
0.587	-nan(ind)	nan	nan
0.588	-nan(ind)	nan	nan
0.589	-nan(ind)	nan	nan
0.59	-nan(ind)	nan	nan
0.591	-nan(ind)	nan	nan
0.592	-nan(ind)	nan	nan
0.593	-nan(ind)	nan	nan
0.594	-nan(ind)	nan	nan
0.595	-nan(ind)	nan	nan
0.596	nan	-nan(ind)	-nan(ind)
0.597	nan	-nan(ind)	-nan(ind)
0.598	nan	-nan(ind)	-nan(ind)
0.599	nan	-nan(ind)	-nan(ind)
0.6	nan	-nan(ind)	-nan(ind)
0.601	nan	-nan(ind)	-nan(ind)
0.602	nan	-nan(ind)	-nan(ind)
0.603	nan	-nan(ind)	-nan(ind)
0.604	nan	-nan(ind)	-nan(ind)
0.605	nan	-nan(ind)	-nan(ind)
0.606	nan	-nan(ind)	-nan(ind)
0.607	nan	-nan(ind)	-nan(ind)
0.608	nan	-nan(ind)	-nan(ind)
0.609	nan	-nan(ind)	-nan(ind)
0.61	nan	-nan(ind)	-nan(ind)
0.611	nan	-nan(ind)	-nan(ind)
0.612	nan	-nan(ind)	-nan(ind)
0.613	nan	-nan(ind)	-nan(ind)
0.614	nan	-nan(ind)	-nan(ind)
0.615	nan	-nan(ind)	-nan(ind)
0.616	nan	-nan(ind)	-nan(ind)
0.617	nan	-nan(ind)	-nan(ind)
0.618	nan	-nan(ind)	-nan(ind)
0.619	nan	-nan(ind)	-nan(ind)
0.62	nan	-nan(ind)	-nan(ind)
0.621	nan	-nan(ind)	-nan(ind)
0.622	nan	-nan(ind)	-nan(ind)
0.623	nan	-nan(ind)	-nan(ind)
0.624	nan	-nan(ind)	-nan(ind)
0.625	nan	-nan(ind)	-nan(ind)
0.626	nan	-nan(ind)	-nan(ind)
0.627	nan	-nan(ind)	-nan(ind)
0.628	nan	-nan(ind)	-nan(ind)
0.629	nan	-nan(ind)	-nan(ind)
0.63	nan	-nan(ind)	-nan(ind)
0.631	nan	-nan(ind)	-nan(ind)
0.632	nan	-nan(ind)	-nan(ind)
0.633	nan	-nan(ind)	-nan(ind)
0.634	nan	-nan(ind)	-nan(ind)
0.635	nan	-nan(ind)	-nan(ind)
0.636	nan	-nan(ind)	-nan(ind)
0.637	nan	-nan(ind)	-nan(ind)
0.638	nan	-nan(ind)	-nan(ind)
0.639	nan	-nan(ind)	-nan(ind)
0.64	nan	-nan(ind)	-nan(ind)
0.641	nan	-nan(ind)	-nan(ind)
0.642	nan	-nan(ind)	-nan(ind)
0.643	nan	-nan(ind)	-nan(ind)
0.644	nan	-nan(ind)	-nan(ind)
0.645	nan	-nan(ind)	-nan(ind)
0.646	nan	-nan(ind)	-nan(ind)
0.647	nan	-nan(ind)	-nan(ind)
0.648	nan	-nan(ind)	-nan(ind)
0.649	nan	-nan(ind)	-nan(ind)
0.65	nan	-nan(ind)	-nan(ind)
0.651	nan	-nan(ind)	-nan(ind)
0.652	nan	-nan(ind)	-nan(ind)
0.653	nan	-nan(ind)	-nan(ind)
0.654	nan	-nan(ind)	-nan(ind)
0.655	nan	-nan(ind)	-nan(ind)
0.656	nan	-nan(ind)	-nan(ind)
0.657	nan	-nan(ind)	-nan(ind)
0.658	nan	-nan(ind)	-nan(ind)
0.659	nan	-nan(ind)	-nan(ind)
0.66	nan	-nan(ind)	-nan(ind)
0.661	nan	-nan(ind)	-nan(ind)
0.662	nan	-nan(ind)	-nan(ind)
0.663	nan	-nan(ind)	-nan(ind)
0.664	nan	-nan(ind)	-nan(ind)
0.665	nan	-nan(ind)	-nan(ind)
0.666	nan	-nan(ind)	-nan(ind)
0.667	nan	-nan(ind)	-nan(ind)
0.668	nan	-nan(ind)	-nan(ind)
0.669	nan	-nan(ind)	-nan(ind)
0.67	nan	-nan(ind)	-nan(ind)
0.671	nan	-nan(ind)	-nan(ind)
0.672	nan	-nan(ind)	-nan(ind)
0.673	nan	-nan(ind)	-nan(ind)
0.674	nan	-nan(ind)	-nan(ind)
0.675	nan	-nan(ind)	-nan(ind)
0.676	nan	-nan(ind)	-nan(ind)
0.677	nan	-nan(ind)	-nan(ind)
0.678	nan	-nan(ind)	-nan(ind)
0.679	nan	-nan(ind)	-nan(ind)
0.68	nan	-nan(ind)	-nan(ind)
0.681	nan	-nan(ind)	-nan(ind)
0.6820000000000001	nan	-nan(ind)	-nan(ind)
0.6830000000000001	nan	-nan(ind)	-nan(ind)
0.6840000000000001	nan	-nan(ind)	-nan(ind)
0.6850000000000001	nan	-nan(ind)	-nan(ind)
0.6860000000000001	nan	-nan(ind)	-nan(ind)
0.6870000000000001	nan	-nan(ind)	-nan(ind)
0.6880000000000001	nan	-nan(ind)	-nan(ind)
0.6890000000000001	nan	-nan(ind)	-nan(ind)
0.6900000000000001	nan	-nan(ind)	-nan(ind)
0.6910000000000001	nan	-nan(ind)	-nan(ind)
0.6920000000000001	nan	-nan(ind)	-nan(ind)
0.6930000000000001	nan	-nan(ind)	-nan(ind)
0.6940000000000001	nan	-nan(ind)	-nan(ind)
0.6950000000000001	nan	-nan(ind)	-nan(ind)
0.6960000000000001	nan	-nan(ind)	-nan(ind)
0.6970000000000001	nan	-nan(ind)	-nan(ind)
0.6980000000000001	nan	-nan(ind)	-nan(ind)
0.6990000000000001	nan	-nan(ind)	-nan(ind)
0.7000000000000001	nan	-nan(ind)	-nan(ind)
0.7010000000000001	nan	-nan(ind)	-nan(ind)
0.7020000000000001	nan	-nan(ind)	-nan(ind)
0.7030000000000001	nan	-nan(ind)	-nan(ind)
0.704	nan	-nan(ind)	-nan(ind)
0.705	nan	-nan(ind)	-nan(ind)
0.706	nan	-nan(ind)	-nan(ind)
0.707	nan	-nan(ind)	-nan(ind)
0.708	nan	-nan(ind)	-nan(ind)
0.709	nan	-nan(ind)	-nan(ind)
0.71	nan	-nan(ind)	-nan(ind)
0.711	nan	-nan(ind)	-nan(ind)
0.712	nan	-nan(ind)	-nan(ind)
0.713	nan	-nan(ind)	-nan(ind)
0.714	nan	-nan(ind)	-nan(ind)
0.715	nan	-nan(ind)	-nan(ind)
0.716	nan	-nan(ind)	-nan(ind)
0.717	nan	-nan(ind)	-nan(ind)
0.718	nan	-nan(ind)	-nan(ind)
0.719	nan	-nan(ind)	-nan(ind)
0.72	nan	-nan(ind)	-nan(ind)
0.721	nan	-nan(ind)	-nan(ind)
0.722	nan	-nan(ind)	-nan(ind)
0.723	nan	-nan(ind)	-nan(ind)
0.724	nan	-nan(ind)	-nan(ind)
0.725	nan	-nan(ind)	-nan(ind)
0.726	nan	-nan(ind)	-nan(ind)
0.727	nan	-nan(ind)	-nan(ind)
0.728	nan	-nan(ind)	-nan(ind)
0.729	nan	-nan(ind)	-nan(ind)
0.73	nan	-nan(ind)	-nan(ind)
0.731	nan	-nan(ind)	-nan(ind)
0.732	nan	-nan(ind)	-nan(ind)
0.733	nan	-nan(ind)	-nan(ind)
0.734	nan	-nan(ind)	-nan(ind)
0.735	nan	-nan(ind)	-nan(ind)
0.736	nan	-nan(ind)	-nan(ind)
0.737	nan	-nan(ind)	-nan(ind)
0.738	nan	-nan(ind)	-nan(ind)
0.739	nan	-nan(ind)	-nan(ind)
0.74	nan	-nan(ind)	-nan(ind)
0.741	nan	-nan(ind)	-nan(ind)
0.742	nan	-nan(ind)	-nan(ind)
0.743	nan	-nan(ind)	-nan(ind)
0.744	nan	-nan(ind)	-nan(ind)
0.745	nan	-nan(ind)	-nan(ind)
0.746	nan	-nan(ind)	-nan(ind)
0.747	nan	-nan(ind)	-nan(ind)
0.748	nan	-nan(ind)	-nan(ind)
0.749	nan	-nan(ind)	-nan(ind)
0.75	nan	-nan(ind)	-nan(ind)
0.751	nan	-nan(ind)	-nan(ind)
0.752	nan	-nan(ind)	-nan(ind)
0.753	nan	-nan(ind)	-nan(ind)
0.754	nan	-nan(ind)	-nan(ind)
0.755	nan	-nan(ind)	-nan(ind)
0.756	nan	-nan(ind)	-nan(ind)
0.757	nan	-nan(ind)	-nan(ind)
0.758	nan	-nan(ind)	-nan(ind)
0.759	nan	-nan(ind)	-nan(ind)
0.76	nan	-nan(ind)	-nan(ind)
0.761	nan	-nan(ind)	-nan(ind)
0.762	nan	-nan(ind)	-nan(ind)
0.763	nan	-nan(ind)	-nan(ind)
0.764	nan	-nan(ind)	-nan(ind)
0.765	nan	-nan(ind)	-nan(ind)
0.766	nan	-nan(ind)	-nan(ind)
0.767	nan	-nan(ind)	-nan(ind)
0.768	nan	-nan(ind)	-nan(ind)
0.769	nan	-nan(ind)	-nan(ind)
0.77	nan	-nan(ind)	-nan(ind)
0.771	nan	-nan(ind)	-nan(ind)
0.772	nan	-nan(ind)	-nan(ind)
0.773	nan	-nan(ind)	-nan(ind)
0.774	nan	-nan(ind)	-nan(ind)
0.775	nan	-nan(ind)	-nan(ind)
0.776	nan	-nan(ind)	-nan(ind)
0.777	nan	-nan(ind)	-nan(ind)
0.778	nan	-nan(ind)	-nan(ind)
0.779	nan	-nan(ind)	-nan(ind)
0.78	nan	-nan(ind)	-nan(ind)
0.781	nan	-nan(ind)	-nan(ind)
0.782	nan	-nan(ind)	-nan(ind)
0.783	nan	-nan(ind)	-nan(ind)
0.784	nan	-nan(ind)	-nan(ind)
0.785	nan	-nan(ind)	-nan(ind)
0.786	nan	-nan(ind)	-nan(ind)
0.787	nan	-nan(ind)	-nan(ind)
0.788	nan	-nan(ind)	-nan(ind)
0.789	nan	-nan(ind)	-nan(ind)
0.79	nan	-nan(ind)	-nan(ind)
0.791	nan	-nan(ind)	-nan(ind)
0.792	nan	-nan(ind)	-nan(ind)
0.793	nan	-nan(ind)	-nan(ind)
0.794	nan	-nan(ind)	-nan(ind)
0.795	nan	-nan(ind)	-nan(ind)
0.796	nan	-nan(ind)	-nan(ind)
0.797	nan	-nan(ind)	-nan(ind)
0.798	nan	-nan(ind)	-nan(ind)
0.799	nan	-nan(ind)	-nan(ind)
0.8	nan	-nan(ind)	-nan(ind)
0.801	nan	-nan(ind)	-nan(ind)
0.802	nan	-nan(ind)	-nan(ind)
0.803	nan	-nan(ind)	-nan(ind)
0.804	nan	-nan(ind)	-nan(ind)
0.805	nan	-nan(ind)	-nan(ind)
0.806	nan	-nan(ind)	-nan(ind)
0.8070000000000001	nan	-nan(ind)	-nan(ind)
0.8080000000000001	nan	-nan(ind)	-nan(ind)
0.8090000000000001	nan	-nan(ind)	-nan(ind)
0.8100000000000001	nan	-nan(ind)	-nan(ind)
0.8110000000000001	nan	-nan(ind)	-nan(ind)
0.8120000000000001	nan	-nan(ind)	-nan(ind)
0.8130000000000001	nan	-nan(ind)	-nan(ind)
0.8140000000000001	nan	-nan(ind)	-nan(ind)
0.8150000000000001	nan	-nan(ind)	-nan(ind)
0.8160000000000001	nan	-nan(ind)	-nan(ind)
0.8170000000000001	nan	-nan(ind)	-nan(ind)
0.8180000000000001	nan	-nan(ind)	-nan(ind)
0.8190000000000001	nan	-nan(ind)	-nan(ind)
0.8200000000000001	nan	-nan(ind)	-nan(ind)
0.8210000000000001	nan	-nan(ind)	-nan(ind)
0.8220000000000001	nan	-nan(ind)	-nan(ind)
0.8230000000000001	nan	-nan(ind)	-nan(ind)
0.8240000000000001	nan	-nan(ind)	-nan(ind)
0.8250000000000001	nan	-nan(ind)	-nan(ind)
0.8260000000000001	nan	-nan(ind)	-nan(ind)
0.8270000000000001	nan	-nan(ind)	-nan(ind)
0.8280000000000001	nan	-nan(ind)	-nan(ind)
0.8290000000000001	nan	-nan(ind)	-nan(ind)
0.8300000000000001	nan	-nan(ind)	-nan(ind)
0.8310000000000001	nan	-nan(ind)	-nan(ind)
0.8320000000000001	nan	-nan(ind)	-nan(ind)
0.833	nan	-nan(ind)	-nan(ind)
0.834	nan	-nan(ind)	-nan(ind)
0.835	nan	-nan(ind)	-nan(ind)
0.836	nan	-nan(ind)	-nan(ind)
0.837	nan	-nan(ind)	-nan(ind)
0.838	nan	-nan(ind)	-nan(ind)
0.839	nan	-nan(ind)	-nan(ind)
0.84	nan	-nan(ind)	-nan(ind)
0.841	nan	-nan(ind)	-nan(ind)
0.842	nan	-nan(ind)	-nan(ind)
0.843	nan	-nan(ind)	-nan(ind)
0.844	nan	-nan(ind)	-nan(ind)
0.845	nan	-nan(ind)	-nan(ind)
0.846	nan	-nan(ind)	-nan(ind)
0.847	nan	-nan(ind)	-nan(ind)
0.848	nan	-nan(ind)	-nan(ind)
0.849	nan	-nan(ind)	-nan(ind)
0.85	nan	-nan(ind)	-nan(ind)
0.851	nan	-nan(ind)	-nan(ind)
0.852	nan	-nan(ind)	-nan(ind)
0.853	nan	-nan(ind)	-nan(ind)
0.854	nan	-nan(ind)	-nan(ind)
0.855	nan	-nan(ind)	-nan(ind)
0.856	nan	-nan(ind)	-nan(ind)
0.857	nan	-nan(ind)	-nan(ind)
0.858	nan	-nan(ind)	-nan(ind)
0.859	nan	-nan(ind)	-nan(ind)
0.86	nan	-nan(ind)	-nan(ind)
0.861	nan	-nan(ind)	-nan(ind)
0.862	nan	-nan(ind)	-nan(ind)
0.863	nan	-nan(ind)	-nan(ind)
0.864	nan	-nan(ind)	-nan(ind)
0.865	nan	-nan(ind)	-nan(ind)
0.866	nan	-nan(ind)	-nan(ind)
0.867	nan	-nan(ind)	-nan(ind)
0.868	nan	-nan(ind)	-nan(ind)
0.869	nan	-nan(ind)	-nan(ind)
0.87	nan	-nan(ind)	-nan(ind)
0.871	nan	-nan(ind)	-nan(ind)
0.872	nan	-nan(ind)	-nan(ind)
0.873	nan	-nan(ind)	-nan(ind)
0.874	nan	-nan(ind)	-nan(ind)
0.875	nan	-nan(ind)	-nan(ind)
0.876	nan	-nan(ind)	-nan(ind)
0.877	nan	-nan(ind)	-nan(ind)
0.878	nan	-nan(ind)	-nan(ind)
0.879	nan	-nan(ind)	-nan(ind)
0.88	nan	-nan(ind)	-nan(ind)
0.881	nan	-nan(ind)	-nan(ind)
0.882	nan	-nan(ind)	-nan(ind)
0.883	nan	-nan(ind)	-nan(ind)
0.884	nan	-nan(ind)	-nan(ind)
0.885	nan	-nan(ind)	-nan(ind)
0.886	nan	-nan(ind)	-nan(ind)
0.887	nan	-nan(ind)	-nan(ind)
0.888	nan	-nan(ind)	-nan(ind)
0.889	nan	-nan(ind)	-nan(ind)
0.89	nan	-nan(ind)	-nan(ind)
0.891	nan	-nan(ind)	-nan(ind)
0.892	nan	-nan(ind)	-nan(ind)
0.893	nan	-nan(ind)	-nan(ind)
0.894	nan	-nan(ind)	-nan(ind)
0.895	nan	-nan(ind)	-nan(ind)
0.896	nan	-nan(ind)	-nan(ind)
0.897	nan	-nan(ind)	-nan(ind)
0.898	nan	-nan(ind)	-nan(ind)
0.899	nan	-nan(ind)	-nan(ind)
0.9	nan	-nan(ind)	-nan(ind)
0.901	nan	-nan(ind)	-nan(ind)
0.902	nan	-nan(ind)	-nan(ind)
0.903	nan	-nan(ind)	-nan(ind)
0.904	nan	-nan(ind)	-nan(ind)
0.905	nan	-nan(ind)	-nan(ind)
0.906	nan	-nan(ind)	-nan(ind)
0.907	nan	-nan(ind)	-nan(ind)
0.908	nan	-nan(ind)	-nan(ind)
0.909	nan	-nan(ind)	-nan(ind)
0.91	nan	-nan(ind)	-nan(ind)
0.911	nan	-nan(ind)	-nan(ind)
0.912	nan	-nan(ind)	-nan(ind)
0.913	nan	-nan(ind)	-nan(ind)
0.914	nan	-nan(ind)	-nan(ind)
0.915	nan	-nan(ind)	-nan(ind)
0.916	nan	-nan(ind)	-nan(ind)
0.917	nan	-nan(ind)	-nan(ind)
0.918	nan	-nan(ind)	-nan(ind)
0.919	nan	-nan(ind)	-nan(ind)
0.92	nan	-nan(ind)	-nan(ind)
0.921	nan	-nan(ind)	-nan(ind)
0.922	nan	-nan(ind)	-nan(ind)
0.923	nan	-nan(ind)	-nan(ind)
0.924	nan	-nan(ind)	-nan(ind)
0.925	nan	-nan(ind)	-nan(ind)
0.926	nan	-nan(ind)	-nan(ind)
0.927	nan	-nan(ind)	-nan(ind)
0.928	nan	-nan(ind)	-nan(ind)
0.929	nan	-nan(ind)	-nan(ind)
0.93	nan	-nan(ind)	-nan(ind)
0.931	nan	-nan(ind)	-nan(ind)
0.9320000000000001	nan	-nan(ind)	-nan(ind)
0.9330000000000001	nan	-nan(ind)	-nan(ind)
0.9340000000000001	nan	-nan(ind)	-nan(ind)
0.9350000000000001	nan	-nan(ind)	-nan(ind)
0.9360000000000001	nan	-nan(ind)	-nan(ind)
0.9370000000000001	nan	-nan(ind)	-nan(ind)
0.9380000000000001	nan	-nan(ind)	-nan(ind)
0.9390000000000001	nan	-nan(ind)	-nan(ind)
0.9400000000000001	nan	-nan(ind)	-nan(ind)
0.9410000000000001	nan	-nan(ind)	-nan(ind)
0.9420000000000001	nan	-nan(ind)	-nan(ind)
0.9430000000000001	nan	-nan(ind)	-nan(ind)
0.9440000000000001	nan	-nan(ind)	-nan(ind)
0.9450000000000001	nan	-nan(ind)	-nan(ind)
0.9460000000000001	nan	-nan(ind)	-nan(ind)
0.9470000000000001	nan	-nan(ind)	-nan(ind)
0.9480000000000001	nan	-nan(ind)	-nan(ind)
0.9490000000000001	nan	-nan(ind)	-nan(ind)
0.9500000000000001	nan	-nan(ind)	-nan(ind)
0.9510000000000001	nan	-nan(ind)	-nan(ind)
0.9520000000000001	nan	-nan(ind)	-nan(ind)
0.9530000000000001	nan	-nan(ind)	-nan(ind)
0.9540000000000001	nan	-nan(ind)	-nan(ind)
0.9550000000000001	nan	-nan(ind)	-nan(ind)
0.9560000000000001	nan	-nan(ind)	-nan(ind)
0.9570000000000001	nan	-nan(ind)	-nan(ind)
0.9580000000000001	nan	-nan(ind)	-nan(ind)
0.9590000000000001	nan	-nan(ind)	-nan(ind)
0.96	nan	-nan(ind)	-nan(ind)
0.961	nan	-nan(ind)	-nan(ind)
0.962	nan	-nan(ind)	-nan(ind)
0.963	nan	-nan(ind)	-nan(ind)
0.964	nan	-nan(ind)	-nan(ind)
0.965	nan	-nan(ind)	-nan(ind)
0.966	nan	-nan(ind)	-nan(ind)
0.967	nan	-nan(ind)	-nan(ind)
0.968	nan	-nan(ind)	-nan(ind)
0.969	nan	-nan(ind)	-nan(ind)
0.97	nan	-nan(ind)	-nan(ind)
0.971	nan	-nan(ind)	-nan(ind)
0.972	nan	-nan(ind)	-nan(ind)
0.973	nan	-nan(ind)	-nan(ind)
0.974	nan	-nan(ind)	-nan(ind)
0.975	nan	-nan(ind)	-nan(ind)
0.976	nan	-nan(ind)	-nan(ind)
0.977	nan	-nan(ind)	-nan(ind)
0.978	nan	-nan(ind)	-nan(ind)
0.979	nan	-nan(ind)	-nan(ind)
0.98	nan	-nan(ind)	-nan(ind)
0.981	nan	-nan(ind)	-nan(ind)
0.982	nan	-nan(ind)	-nan(ind)
0.983	nan	-nan(ind)	-nan(ind)
0.984	nan	-nan(ind)	-nan(ind)
0.985	nan	-nan(ind)	-nan(ind)
0.986	nan	-nan(ind)	-nan(ind)
0.987	nan	-nan(ind)	-nan(ind)
0.988	nan	-nan(ind)	-nan(ind)
0.989	nan	-nan(ind)	-nan(ind)
0.99	nan	-nan(ind)	-nan(ind)
0.991	nan	-nan(ind)	-nan(ind)
0.992	nan	-nan(ind)	-nan(ind)
0.993	nan	-nan(ind)	-nan(ind)
0.994	nan	-nan(ind)	-nan(ind)
0.995	nan	-nan(ind)	-nan(ind)
0.996	nan	-nan(ind)	-nan(ind)
0.997	nan	-nan(ind)	-nan(ind)
0.998	nan	-nan(ind)	-nan(ind)
0.999	nan	-nan(ind)	-nan(ind)
1	nan	-nan(ind)	-nan(ind)
1.001	nan	-nan(ind)	-nan(ind)
1.002	nan	-nan(ind)	-nan(ind)
1.003	nan	-nan(ind)	-nan(ind)
1.004	nan	-nan(ind)	-nan(ind)
1.005	nan	-nan(ind)	-nan(ind)
1.006	nan	-nan(ind)	-nan(ind)
1.007	nan	-nan(ind)	-nan(ind)
1.008	nan	-nan(ind)	-nan(ind)
1.009	nan	-nan(ind)	-nan(ind)
1.01	nan	-nan(ind)	-nan(ind)
1.011	nan	-nan(ind)	-nan(ind)
1.012	nan	-nan(ind)	-nan(ind)
1.013	nan	-nan(ind)	-nan(ind)
1.014	nan	-nan(ind)	-nan(ind)
1.015	nan	-nan(ind)	-nan(ind)
1.016	nan	-nan(ind)	-nan(ind)
1.017	nan	-nan(ind)	-nan(ind)
1.018	nan	-nan(ind)	-nan(ind)
1.019	nan	-nan(ind)	-nan(ind)
1.02	nan	-nan(ind)	-nan(ind)
1.021	nan	-nan(ind)	-nan(ind)
1.022	nan	-nan(ind)	-nan(ind)
1.023	nan	-nan(ind)	-nan(ind)
1.024	nan	-nan(ind)	-nan(ind)
1.025	nan	-nan(ind)	-nan(ind)
1.026	nan	-nan(ind)	-nan(ind)
1.027	nan	-nan(ind)	-nan(ind)
1.028	nan	-nan(ind)	-nan(ind)
1.029	nan	-nan(ind)	-nan(ind)
1.03	nan	-nan(ind)	-nan(ind)
1.031	nan	-nan(ind)	-nan(ind)
1.032	nan	-nan(ind)	-nan(ind)
1.033	nan	-nan(ind)	-nan(ind)
1.034	nan	-nan(ind)	-nan(ind)
1.035	nan	-nan(ind)	-nan(ind)
1.036	nan	-nan(ind)	-nan(ind)
1.037	nan	-nan(ind)	-nan(ind)
1.038	nan	-nan(ind)	-nan(ind)
1.039	nan	-nan(ind)	-nan(ind)
1.04	nan	-nan(ind)	-nan(ind)
1.041	nan	-nan(ind)	-nan(ind)
1.042	nan	-nan(ind)	-nan(ind)
1.043	nan	-nan(ind)	-nan(ind)
1.044	nan	-nan(ind)	-nan(ind)
1.045	nan	-nan(ind)	-nan(ind)
1.046	nan	-nan(ind)	-nan(ind)
1.047	nan	-nan(ind)	-nan(ind)
1.048	nan	-nan(ind)	-nan(ind)
1.049	nan	-nan(ind)	-nan(ind)
1.05	nan	-nan(ind)	-nan(ind)
1.051	nan	-nan(ind)	-nan(ind)
1.052	nan	-nan(ind)	-nan(ind)
1.053	nan	-nan(ind)	-nan(ind)
1.054	nan	-nan(ind)	-nan(ind)
1.055	nan	-nan(ind)	-nan(ind)
1.056	nan	-nan(ind)	-nan(ind)
1.057	nan	-nan(ind)	-nan(ind)
1.058	nan	-nan(ind)	-nan(ind)
1.059	nan	-nan(ind)	-nan(ind)
1.06	nan	-nan(ind)	-nan(ind)
1.061	nan	-nan(ind)	-nan(ind)
1.062	nan	-nan(ind)	-nan(ind)
1.063	nan	-nan(ind)	-nan(ind)
1.064	nan	-nan(ind)	-nan(ind)
1.065	nan	-nan(ind)	-nan(ind)
1.066	nan	-nan(ind)	-nan(ind)
1.067	nan	-nan(ind)	-nan(ind)
1.068	nan	-nan(ind)	-nan(ind)
1.069	nan	-nan(ind)	-nan(ind)
1.07	nan	-nan(ind)	-nan(ind)
1.071	nan	-nan(ind)	-nan(ind)
1.072	nan	-nan(ind)	-nan(ind)
1.073	nan	-nan(ind)	-nan(ind)
1.074	nan	-nan(ind)	-nan(ind)
1.075	nan	-nan(ind)	-nan(ind)
1.076	nan	-nan(ind)	-nan(ind)
1.077	nan	-nan(ind)	-nan(ind)
1.078	nan	-nan(ind)	-nan(ind)
1.079	nan	-nan(ind)	-nan(ind)
1.08	nan	-nan(ind)	-nan(ind)
1.081	nan	-nan(ind)	-nan(ind)
1.082	nan	-nan(ind)	-nan(ind)
1.083	nan	-nan(ind)	-nan(ind)
1.084	nan	-nan(ind)	-nan(ind)
1.085	nan	-nan(ind)	-nan(ind)
1.086	nan	-nan(ind)	-nan(ind)
1.087	nan	-nan(ind)	-nan(ind)
1.088	nan	-nan(ind)	-nan(ind)
1.089	nan	-nan(ind)	-nan(ind)
1.09	nan	-nan(ind)	-nan(ind)
1.091	nan	-nan(ind)	-nan(ind)
1.092	nan	-nan(ind)	-nan(ind)
1.093	nan	-nan(ind)	-nan(ind)
1.094	nan	-nan(ind)	-nan(ind)
1.095	nan	-nan(ind)	-nan(ind)
1.096	nan	-nan(ind)	-nan(ind)
1.097	nan	-nan(ind)	-nan(ind)
1.098	nan	-nan(ind)	-nan(ind)
1.099	nan	-nan(ind)	-nan(ind)
1.1	nan	-nan(ind)	-nan(ind)
1.101	nan	-nan(ind)	-nan(ind)
1.102	nan	-nan(ind)	-nan(ind)
1.103	nan	-nan(ind)	-nan(ind)
1.104	nan	-nan(ind)	-nan(ind)
1.105	nan	-nan(ind)	-nan(ind)
1.106	nan	-nan(ind)	-nan(ind)
1.107	nan	-nan(ind)	-nan(ind)
1.108	nan	-nan(ind)	-nan(ind)
1.109	nan	-nan(ind)	-nan(ind)
1.11	nan	-nan(ind)	-nan(ind)
1.111	nan	-nan(ind)	-nan(ind)
1.112	nan	-nan(ind)	-nan(ind)
1.113	nan	-nan(ind)	-nan(ind)
1.114	nan	-nan(ind)	-nan(ind)
1.115	nan	-nan(ind)	-nan(ind)
1.116	nan	-nan(ind)	-nan(ind)
1.117	nan	-nan(ind)	-nan(ind)
1.118	nan	-nan(ind)	-nan(ind)
1.119	nan	-nan(ind)	-nan(ind)
1.12	nan	-nan(ind)	-nan(ind)
1.121	nan	-nan(ind)	-nan(ind)
1.122	nan	-nan(ind)	-nan(ind)
1.123	nan	-nan(ind)	-nan(ind)
1.124	nan	-nan(ind)	-nan(ind)
1.125	nan	-nan(ind)	-nan(ind)
1.126	nan	-nan(ind)	-nan(ind)
1.127	nan	-nan(ind)	-nan(ind)
1.128	nan	-nan(ind)	-nan(ind)
1.129	nan	-nan(ind)	-nan(ind)
1.13	nan	-nan(ind)	-nan(ind)
1.131	nan	-nan(ind)	-nan(ind)
1.132	nan	-nan(ind)	-nan(ind)
1.133	nan	-nan(ind)	-nan(ind)
1.134	nan	-nan(ind)	-nan(ind)
1.135	nan	-nan(ind)	-nan(ind)
1.136	nan	-nan(ind)	-nan(ind)
1.137	nan	-nan(ind)	-nan(ind)
1.138	nan	-nan(ind)	-nan(ind)
1.139	nan	-nan(ind)	-nan(ind)
1.14	nan	-nan(ind)	-nan(ind)
1.141	nan	-nan(ind)	-nan(ind)
1.142	nan	-nan(ind)	-nan(ind)
1.143	nan	-nan(ind)	-nan(ind)
1.144	nan	-nan(ind)	-nan(ind)
1.145	nan	-nan(ind)	-nan(ind)
1.146	nan	-nan(ind)	-nan(ind)
1.147	nan	-nan(ind)	-nan(ind)
1.148	nan	-nan(ind)	-nan(ind)
1.149	nan	-nan(ind)	-nan(ind)
1.15	nan	-nan(ind)	-nan(ind)
1.151	nan	-nan(ind)	-nan(ind)
1.152	nan	-nan(ind)	-nan(ind)
1.153	nan	-nan(ind)	-nan(ind)
1.154	nan	-nan(ind)	-nan(ind)
1.155	nan	-nan(ind)	-nan(ind)
1.156	nan	-nan(ind)	-nan(ind)
1.157	nan	-nan(ind)	-nan(ind)
1.158	nan	-nan(ind)	-nan(ind)
1.159	nan	-nan(ind)	-nan(ind)
1.16	nan	-nan(ind)	-nan(ind)
1.161	nan	-nan(ind)	-nan(ind)
1.162	nan	-nan(ind)	-nan(ind)
1.163	nan	-nan(ind)	-nan(ind)
1.164	nan	-nan(ind)	-nan(ind)
1.165	nan	-nan(ind)	-nan(ind)
1.166	nan	-nan(ind)	-nan(ind)
1.167	nan	-nan(ind)	-nan(ind)
1.168	nan	-nan(ind)	-nan(ind)
1.169	nan	-nan(ind)	-nan(ind)
1.17	nan	-nan(ind)	-nan(ind)
1.171	nan	-nan(ind)	-nan(ind)
1.172	nan	-nan(ind)	-nan(ind)
1.173	nan	-nan(ind)	-nan(ind)
1.174	nan	-nan(ind)	-nan(ind)
1.175	nan	-nan(ind)	-nan(ind)
1.176	nan	-nan(ind)	-nan(ind)
1.177	nan	-nan(ind)	-nan(ind)
1.178	nan	-nan(ind)	-nan(ind)
1.179	nan	-nan(ind)	-nan(ind)
1.18	nan	-nan(ind)	-nan(ind)
1.181	nan	-nan(ind)	-nan(ind)
1.182	nan	-nan(ind)	-nan(ind)
1.183	nan	-nan(ind)	-nan(ind)
1.184	nan	-nan(ind)	-nan(ind)
1.185	nan	-nan(ind)	-nan(ind)
1.186	nan	-nan(ind)	-nan(ind)
1.187	nan	-nan(ind)	-nan(ind)
1.188	nan	-nan(ind)	-nan(ind)
1.189	nan	-nan(ind)	-nan(ind)
1.19	nan	-nan(ind)	-nan(ind)
1.191	nan	-nan(ind)	-nan(ind)
1.192	nan	-nan(ind)	-nan(ind)
1.193	nan	-nan(ind)	-nan(ind)
1.194	nan	-nan(ind)	-nan(ind)
1.195	nan	-nan(ind)	-nan(ind)
1.196	nan	-nan(ind)	-nan(ind)
1.197	nan	-nan(ind)	-nan(ind)
1.198	nan	-nan(ind)	-nan(ind)
1.199	nan	-nan(ind)	-nan(ind)
1.2	nan	-nan(ind)	-nan(ind)
1.201	nan	-nan(ind)	-nan(ind)
1.202	nan	-nan(ind)	-nan(ind)
1.203	nan	-nan(ind)	-nan(ind)
1.204	nan	-nan(ind)	-nan(ind)
1.205	nan	-nan(ind)	-nan(ind)
1.206	nan	-nan(ind)	-nan(ind)
1.207	nan	-nan(ind)	-nan(ind)
1.208	nan	-nan(ind)	-nan(ind)
1.209	nan	-nan(ind)	-nan(ind)
1.21	nan	-nan(ind)	-nan(ind)
1.211	nan	-nan(ind)	-nan(ind)
1.212	nan	-nan(ind)	-nan(ind)
1.213	nan	-nan(ind)	-nan(ind)
1.214	nan	-nan(ind)	-nan(ind)
1.215	nan	-nan(ind)	-nan(ind)
1.216	nan	-nan(ind)	-nan(ind)
1.217	nan	-nan(ind)	-nan(ind)
1.218	nan	-nan(ind)	-nan(ind)
1.219	nan	-nan(ind)	-nan(ind)
1.22	nan	-nan(ind)	-nan(ind)
1.221	nan	-nan(ind)	-nan(ind)
1.222	nan	-nan(ind)	-nan(ind)
1.223	nan	-nan(ind)	-nan(ind)
1.224	nan	-nan(ind)	-nan(ind)
1.225	nan	-nan(ind)	-nan(ind)
1.226	nan	-nan(ind)	-nan(ind)
1.227	nan	-nan(ind)	-nan(ind)
1.228	nan	-nan(ind)	-nan(ind)
1.229	nan	-nan(ind)	-nan(ind)
1.23	nan	-nan(ind)	-nan(ind)
1.231	nan	-nan(ind)	-nan(ind)
1.232	nan	-nan(ind)	-nan(ind)
1.233	nan	-nan(ind)	-nan(ind)
1.234	nan	-nan(ind)	-nan(ind)
1.235	nan	-nan(ind)	-nan(ind)
1.236	nan	-nan(ind)	-nan(ind)
1.237	nan	-nan(ind)	-nan(ind)
1.238	nan	-nan(ind)	-nan(ind)
1.239	nan	-nan(ind)	-nan(ind)
1.24	nan	-nan(ind)	-nan(ind)
1.241	nan	-nan(ind)	-nan(ind)
1.242	nan	-nan(ind)	-nan(ind)
1.243	nan	-nan(ind)	-nan(ind)
1.244	nan	-nan(ind)	-nan(ind)
1.245	nan	-nan(ind)	-nan(ind)
1.246	nan	-nan(ind)	-nan(ind)
1.247	nan	-nan(ind)	-nan(ind)
1.248	nan	-nan(ind)	-nan(ind)
1.249	nan	-nan(ind)	-nan(ind)
1.25	nan	-nan(ind)	-nan(ind)
1.251	nan	-nan(ind)	-nan(ind)
1.252	nan	-nan(ind)	-nan(ind)
1.253	nan	-nan(ind)	-nan(ind)
1.254	nan	-nan(ind)	-nan(ind)
1.255	nan	-nan(ind)	-nan(ind)
1.256	nan	-nan(ind)	-nan(ind)
1.257	nan	-nan(ind)	-nan(ind)
1.258	nan	-nan(ind)	-nan(ind)
1.259	nan	-nan(ind)	-nan(ind)
1.26	nan	-nan(ind)	-nan(ind)
1.261	nan	-nan(ind)	-nan(ind)
1.262	nan	-nan(ind)	-nan(ind)
1.263	nan	-nan(ind)	-nan(ind)
1.264	nan	-nan(ind)	-nan(ind)
1.265	nan	-nan(ind)	-nan(ind)
1.266	nan	-nan(ind)	-nan(ind)
1.267	nan	-nan(ind)	-nan(ind)
1.268	nan	-nan(ind)	-nan(ind)
1.269	nan	-nan(ind)	-nan(ind)
1.27	nan	-nan(ind)	-nan(ind)
1.271	nan	-nan(ind)	-nan(ind)
1.272	nan	-nan(ind)	-nan(ind)
1.273	nan	-nan(ind)	-nan(ind)
1.274	nan	-nan(ind)	-nan(ind)
1.275	nan	-nan(ind)	-nan(ind)
1.276	nan	-nan(ind)	-nan(ind)
1.277	nan	-nan(ind)	-nan(ind)
1.278	nan	-nan(ind)	-nan(ind)
1.279	nan	-nan(ind)	-nan(ind)
1.28	nan	-nan(ind)	-nan(ind)
1.281	nan	-nan(ind)	-nan(ind)
1.282	nan	-nan(ind)	-nan(ind)
1.283	nan	-nan(ind)	-nan(ind)
1.284	nan	-nan(ind)	-nan(ind)
1.285	nan	-nan(ind)	-nan(ind)
1.286	nan	-nan(ind)	-nan(ind)
1.287	nan	-nan(ind)	-nan(ind)
1.288	nan	-nan(ind)	-nan(ind)
1.289	nan	-nan(ind)	-nan(ind)
1.29	nan	-nan(ind)	-nan(ind)
1.291	nan	-nan(ind)	-nan(ind)
1.292	nan	-nan(ind)	-nan(ind)
1.293	nan	-nan(ind)	-nan(ind)
1.294	nan	-nan(ind)	-nan(ind)
1.295	nan	-nan(ind)	-nan(ind)
1.296	nan	-nan(ind)	-nan(ind)
1.297	nan	-nan(ind)	-nan(ind)
1.298	nan	-nan(ind)	-nan(ind)
1.299	nan	-nan(ind)	-nan(ind)
1.3	nan	-nan(ind)	-nan(ind)
1.301	nan	-nan(ind)	-nan(ind)
1.302	nan	-nan(ind)	-nan(ind)
1.303	nan	-nan(ind)	-nan(ind)
1.304	nan	-nan(ind)	-nan(ind)
1.305	nan	-nan(ind)	-nan(ind)
1.306	nan	-nan(ind)	-nan(ind)
1.307	nan	-nan(ind)	-nan(ind)
1.308	nan	-nan(ind)	-nan(ind)
1.309	nan	-nan(ind)	-nan(ind)
1.31	nan	-nan(ind)	-nan(ind)
1.311	nan	-nan(ind)	-nan(ind)
1.312	nan	-nan(ind)	-nan(ind)
1.313	nan	-nan(ind)	-nan(ind)
1.314	nan	-nan(ind)	-nan(ind)
1.315	nan	-nan(ind)	-nan(ind)
1.316	nan	-nan(ind)	-nan(ind)
1.317	nan	-nan(ind)	-nan(ind)
1.318	nan	-nan(ind)	-nan(ind)
1.319	nan	-nan(ind)	-nan(ind)
1.32	nan	-nan(ind)	-nan(ind)
1.321	nan	-nan(ind)	-nan(ind)
1.322	nan	-nan(ind)	-nan(ind)
1.323	nan	-nan(ind)	-nan(ind)
1.324	nan	-nan(ind)	-nan(ind)
1.325	nan	-nan(ind)	-nan(ind)
1.326	nan	-nan(ind)	-nan(ind)
1.327	nan	-nan(ind)	-nan(ind)
1.328	nan	-nan(ind)	-nan(ind)
1.329	nan	-nan(ind)	-nan(ind)
1.33	nan	-nan(ind)	-nan(ind)
1.331	nan	-nan(ind)	-nan(ind)
1.332	nan	-nan(ind)	-nan(ind)
1.333	nan	-nan(ind)	-nan(ind)
1.334	nan	-nan(ind)	-nan(ind)
1.335	nan	-nan(ind)	-nan(ind)
1.336	nan	-nan(ind)	-nan(ind)
1.337	nan	-nan(ind)	-nan(ind)
1.338	nan	-nan(ind)	-nan(ind)
1.339	nan	-nan(ind)	-nan(ind)
1.34	nan	-nan(ind)	-nan(ind)
1.341	nan	-nan(ind)	-nan(ind)
1.342	nan	-nan(ind)	-nan(ind)
1.343	nan	-nan(ind)	-nan(ind)
1.344	nan	-nan(ind)	-nan(ind)
1.345	nan	-nan(ind)	-nan(ind)
1.346	nan	-nan(ind)	-nan(ind)
1.347	nan	-nan(ind)	-nan(ind)
1.348	nan	-nan(ind)	-nan(ind)
1.349	nan	-nan(ind)	-nan(ind)
1.35	nan	-nan(ind)	-nan(ind)
1.351	nan	-nan(ind)	-nan(ind)
1.352	nan	-nan(ind)	-nan(ind)
1.353	nan	-nan(ind)	-nan(ind)
1.354	nan	-nan(ind)	-nan(ind)
1.355	nan	-nan(ind)	-nan(ind)
1.356	nan	-nan(ind)	-nan(ind)
1.357	nan	-nan(ind)	-nan(ind)
1.358	nan	-nan(ind)	-nan(ind)
1.359	nan	-nan(ind)	-nan(ind)
1.36	nan	-nan(ind)	-nan(ind)
1.361	nan	-nan(ind)	-nan(ind)
1.362	nan	-nan(ind)	-nan(ind)
1.363	nan	-nan(ind)	-nan(ind)
1.364	nan	-nan(ind)	-nan(ind)
1.365	nan	-nan(ind)	-nan(ind)
1.366	nan	-nan(ind)	-nan(ind)
1.367	nan	-nan(ind)	-nan(ind)
1.368	nan	-nan(ind)	-nan(ind)
1.369	nan	-nan(ind)	-nan(ind)
1.37	nan	-nan(ind)	-nan(ind)
1.371	nan	-nan(ind)	-nan(ind)
1.372	nan	-nan(ind)	-nan(ind)
1.373	nan	-nan(ind)	-nan(ind)
1.374	nan	-nan(ind)	-nan(ind)
1.375	nan	-nan(ind)	-nan(ind)
1.376	nan	-nan(ind)	-nan(ind)
1.377	nan	-nan(ind)	-nan(ind)
1.378	nan	-nan(ind)	-nan(ind)
1.379	nan	-nan(ind)	-nan(ind)
1.38	nan	-nan(ind)	-nan(ind)
1.381	nan	-nan(ind)	-nan(ind)
1.382	nan	-nan(ind)	-nan(ind)
1.383	nan	-nan(ind)	-nan(ind)
1.384	nan	-nan(ind)	-nan(ind)
1.385	nan	-nan(ind)	-nan(ind)
1.386	nan	-nan(ind)	-nan(ind)
1.387	nan	-nan(ind)	-nan(ind)
1.388	nan	-nan(ind)	-nan(ind)
1.389	nan	-nan(ind)	-nan(ind)
1.39	nan	-nan(ind)	-nan(ind)
1.391	nan	-nan(ind)	-nan(ind)
1.392	nan	-nan(ind)	-nan(ind)
1.393	nan	-nan(ind)	-nan(ind)
1.394	nan	-nan(ind)	-nan(ind)
1.395	nan	-nan(ind)	-nan(ind)
1.396	nan	-nan(ind)	-nan(ind)
1.397	nan	-nan(ind)	-nan(ind)
1.398	nan	-nan(ind)	-nan(ind)
1.399	nan	-nan(ind)	-nan(ind)
1.4	nan	-nan(ind)	-nan(ind)
1.401	nan	-nan(ind)	-nan(ind)
1.402	nan	-nan(ind)	-nan(ind)
1.403	nan	-nan(ind)	-nan(ind)
1.404	nan	-nan(ind)	-nan(ind)
1.405	nan	-nan(ind)	-nan(ind)
1.406	nan	-nan(ind)	-nan(ind)
1.407	nan	-nan(ind)	-nan(ind)
1.408	nan	-nan(ind)	-nan(ind)
1.409	nan	-nan(ind)	-nan(ind)
1.41	nan	-nan(ind)	-nan(ind)
1.411	nan	-nan(ind)	-nan(ind)
1.412	nan	-nan(ind)	-nan(ind)
1.413	nan	-nan(ind)	-nan(ind)
1.414	nan	-nan(ind)	-nan(ind)
1.415	nan	-nan(ind)	-nan(ind)
1.416	nan	-nan(ind)	-nan(ind)
1.417	nan	-nan(ind)	-nan(ind)
1.418	nan	-nan(ind)	-nan(ind)
1.419	nan	-nan(ind)	-nan(ind)
1.42	nan	-nan(ind)	-nan(ind)
1.421	nan	-nan(ind)	-nan(ind)
1.422	nan	-nan(ind)	-nan(ind)
1.423	nan	-nan(ind)	-nan(ind)
1.424	nan	-nan(ind)	-nan(ind)
1.425	nan	-nan(ind)	-nan(ind)
1.426	nan	-nan(ind)	-nan(ind)
1.427	nan	-nan(ind)	-nan(ind)
1.428	nan	-nan(ind)	-nan(ind)
1.429	nan	-nan(ind)	-nan(ind)
1.43	nan	-nan(ind)	-nan(ind)
1.431	nan	-nan(ind)	-nan(ind)
1.432	nan	-nan(ind)	-nan(ind)
1.433	nan	-nan(ind)	-nan(ind)
1.434	nan	-nan(ind)	-nan(ind)
1.435	nan	-nan(ind)	-nan(ind)
1.436	nan	-nan(ind)	-nan(ind)
1.437	nan	-nan(ind)	-nan(ind)
1.438	nan	-nan(ind)	-nan(ind)
1.439	nan	-nan(ind)	-nan(ind)
1.44	nan	-nan(ind)	-nan(ind)
1.441	nan	-nan(ind)	-nan(ind)
1.442	nan	-nan(ind)	-nan(ind)
1.443	nan	-nan(ind)	-nan(ind)
1.444	nan	-nan(ind)	-nan(ind)
1.445	nan	-nan(ind)	-nan(ind)
1.446	nan	-nan(ind)	-nan(ind)
1.447	nan	-nan(ind)	-nan(ind)
1.448	nan	-nan(ind)	-nan(ind)
1.449	nan	-nan(ind)	-nan(ind)
1.45	nan	-nan(ind)	-nan(ind)
1.451	nan	-nan(ind)	-nan(ind)
1.452	nan	-nan(ind)	-nan(ind)
1.453	nan	-nan(ind)	-nan(ind)
1.454	nan	-nan(ind)	-nan(ind)
1.455	nan	-nan(ind)	-nan(ind)
1.456	nan	-nan(ind)	-nan(ind)
1.457	nan	-nan(ind)	-nan(ind)
1.458	nan	-nan(ind)	-nan(ind)
1.459	nan	-nan(ind)	-nan(ind)
1.46	nan	-nan(ind)	-nan(ind)
1.461	nan	-nan(ind)	-nan(ind)
1.462	nan	-nan(ind)	-nan(ind)
1.463	nan	-nan(ind)	-nan(ind)
1.464	nan	-nan(ind)	-nan(ind)
1.465	nan	-nan(ind)	-nan(ind)
1.466	nan	-nan(ind)	-nan(ind)
1.467	nan	-nan(ind)	-nan(ind)
1.468	nan	-nan(ind)	-nan(ind)
1.469	nan	-nan(ind)	-nan(ind)
1.47	nan	-nan(ind)	-nan(ind)
1.471	nan	-nan(ind)	-nan(ind)
1.472	nan	-nan(ind)	-nan(ind)
1.473	nan	-nan(ind)	-nan(ind)
1.474	nan	-nan(ind)	-nan(ind)
1.475	nan	-nan(ind)	-nan(ind)
1.476	nan	-nan(ind)	-nan(ind)
1.477	nan	-nan(ind)	-nan(ind)
1.478	nan	-nan(ind)	-nan(ind)
1.479	nan	-nan(ind)	-nan(ind)
1.48	nan	-nan(ind)	-nan(ind)
1.481	nan	-nan(ind)	-nan(ind)
1.482	nan	-nan(ind)	-nan(ind)
1.483	nan	-nan(ind)	-nan(ind)
1.484	nan	-nan(ind)	-nan(ind)
1.485	nan	-nan(ind)	-nan(ind)
1.486	nan	-nan(ind)	-nan(ind)
1.487	nan	-nan(ind)	-nan(ind)
1.488	nan	-nan(ind)	-nan(ind)
1.489	nan	-nan(ind)	-nan(ind)
1.49	nan	-nan(ind)	-nan(ind)
1.491	nan	-nan(ind)	-nan(ind)
1.492	nan	-nan(ind)	-nan(ind)
1.493	nan	-nan(ind)	-nan(ind)
1.494	nan	-nan(ind)	-nan(ind)
1.495	nan	-nan(ind)	-nan(ind)
1.496	nan	-nan(ind)	-nan(ind)
1.497	nan	-nan(ind)	-nan(ind)
1.498	nan	-nan(ind)	-nan(ind)
1.499	nan	-nan(ind)	-nan(ind)
1.5	nan	-nan(ind)	-nan(ind)
1.501	nan	-nan(ind)	-nan(ind)
1.502	nan	-nan(ind)	-nan(ind)
1.503	nan	-nan(ind)	-nan(ind)
1.504	nan	-nan(ind)	-nan(ind)
1.505	nan	-nan(ind)	-nan(ind)
1.506	nan	-nan(ind)	-nan(ind)
1.507	nan	-nan(ind)	-nan(ind)
1.508	nan	-nan(ind)	-nan(ind)
1.509	nan	-nan(ind)	-nan(ind)
1.51	nan	-nan(ind)	-nan(ind)
1.511	nan	-nan(ind)	-nan(ind)
1.512	nan	-nan(ind)	-nan(ind)
1.513	nan	-nan(ind)	-nan(ind)
1.514	nan	-nan(ind)	-nan(ind)
1.515	nan	-nan(ind)	-nan(ind)
1.516	nan	-nan(ind)	-nan(ind)
1.517	nan	-nan(ind)	-nan(ind)
1.518	nan	-nan(ind)	-nan(ind)
1.519	nan	-nan(ind)	-nan(ind)
1.52	nan	-nan(ind)	-nan(ind)
1.521	nan	-nan(ind)	-nan(ind)
1.522	nan	-nan(ind)	-nan(ind)
1.523	nan	-nan(ind)	-nan(ind)
1.524	nan	-nan(ind)	-nan(ind)
1.525	nan	-nan(ind)	-nan(ind)
1.526	nan	-nan(ind)	-nan(ind)
1.527	nan	-nan(ind)	-nan(ind)
1.528	nan	-nan(ind)	-nan(ind)
1.529	nan	-nan(ind)	-nan(ind)
1.53	nan	-nan(ind)	-nan(ind)
1.531	nan	-nan(ind)	-nan(ind)
1.532	nan	-nan(ind)	-nan(ind)
1.533	nan	-nan(ind)	-nan(ind)
1.534	nan	-nan(ind)	-nan(ind)
1.535	nan	-nan(ind)	-nan(ind)
1.536	nan	-nan(ind)	-nan(ind)
1.537	nan	-nan(ind)	-nan(ind)
1.538	nan	-nan(ind)	-nan(ind)
1.539	nan	-nan(ind)	-nan(ind)
1.54	nan	-nan(ind)	-nan(ind)
1.541	nan	-nan(ind)	-nan(ind)
1.542	nan	-nan(ind)	-nan(ind)
1.543	nan	-nan(ind)	-nan(ind)
1.544	nan	-nan(ind)	-nan(ind)
1.545	nan	-nan(ind)	-nan(ind)
1.546	nan	-nan(ind)	-nan(ind)
1.547	nan	-nan(ind)	-nan(ind)
1.548	nan	-nan(ind)	-nan(ind)
1.549	nan	-nan(ind)	-nan(ind)
1.55	nan	-nan(ind)	-nan(ind)
1.551	nan	-nan(ind)	-nan(ind)
1.552	nan	-nan(ind)	-nan(ind)
1.553	nan	-nan(ind)	-nan(ind)
1.554	nan	-nan(ind)	-nan(ind)
1.555	nan	-nan(ind)	-nan(ind)
1.556	nan	-nan(ind)	-nan(ind)
1.557	nan	-nan(ind)	-nan(ind)
1.558	nan	-nan(ind)	-nan(ind)
1.559	nan	-nan(ind)	-nan(ind)
1.56	nan	-nan(ind)	-nan(ind)
1.561	nan	-nan(ind)	-nan(ind)
1.562	nan	-nan(ind)	-nan(ind)
1.563	nan	-nan(ind)	-nan(ind)
1.564	nan	-nan(ind)	-nan(ind)
1.565	nan	-nan(ind)	-nan(ind)
1.566	nan	-nan(ind)	-nan(ind)
1.567	nan	-nan(ind)	-nan(ind)
1.568	nan	-nan(ind)	-nan(ind)
1.569	nan	-nan(ind)	-nan(ind)
1.57	nan	-nan(ind)	-nan(ind)
1.571	nan	-nan(ind)	-nan(ind)
1.572	nan	-nan(ind)	-nan(ind)
1.573	nan	-nan(ind)	-nan(ind)
1.574	nan	-nan(ind)	-nan(ind)
1.575	nan	-nan(ind)	-nan(ind)
1.576	nan	-nan(ind)	-nan(ind)
1.577	nan	-nan(ind)	-nan(ind)
1.578	nan	-nan(ind)	-nan(ind)
1.579	nan	-nan(ind)	-nan(ind)
1.58	nan	-nan(ind)	-nan(ind)
1.581	nan	-nan(ind)	-nan(ind)
1.582	nan	-nan(ind)	-nan(ind)
1.583	nan	-nan(ind)	-nan(ind)
1.584	nan	-nan(ind)	-nan(ind)
1.585	nan	-nan(ind)	-nan(ind)
1.586	nan	-nan(ind)	-nan(ind)
1.587	nan	-nan(ind)	-nan(ind)
1.588	nan	-nan(ind)	-nan(ind)
1.589	nan	-nan(ind)	-nan(ind)
1.59	nan	-nan(ind)	-nan(ind)
1.591	nan	-nan(ind)	-nan(ind)
1.592	nan	-nan(ind)	-nan(ind)
1.593	nan	-nan(ind)	-nan(ind)
1.594	nan	-nan(ind)	-nan(ind)
1.595	nan	-nan(ind)	-nan(ind)
1.596	nan	-nan(ind)	-nan(ind)
1.597	nan	-nan(ind)	-nan(ind)
1.598	nan	-nan(ind)	-nan(ind)
1.599	nan	-nan(ind)	-nan(ind)
1.6	nan	-nan(ind)	-nan(ind)
1.601	nan	-nan(ind)	-nan(ind)
1.602	nan	-nan(ind)	-nan(ind)
1.603	nan	-nan(ind)	-nan(ind)
1.604	nan	-nan(ind)	-nan(ind)
1.605	nan	-nan(ind)	-nan(ind)
1.606	nan	-nan(ind)	-nan(ind)
1.607	nan	-nan(ind)	-nan(ind)
1.608	nan	-nan(ind)	-nan(ind)
1.609	nan	-nan(ind)	-nan(ind)
1.61	nan	-nan(ind)	-nan(ind)
1.611	nan	-nan(ind)	-nan(ind)
1.612	nan	-nan(ind)	-nan(ind)
1.613	nan	-nan(ind)	-nan(ind)
1.614	nan	-nan(ind)	-nan(ind)
1.615	nan	-nan(ind)	-nan(ind)
1.616	nan	-nan(ind)	-nan(ind)
1.617	nan	-nan(ind)	-nan(ind)
1.618	nan	-nan(ind)	-nan(ind)
1.619	nan	-nan(ind)	-nan(ind)
1.62	nan	-nan(ind)	-nan(ind)
1.621	nan	-nan(ind)	-nan(ind)
1.622	nan	-nan(ind)	-nan(ind)
1.623	nan	-nan(ind)	-nan(ind)
1.624	nan	-nan(ind)	-nan(ind)
1.625	nan	-nan(ind)	-nan(ind)
1.626	nan	-nan(ind)	-nan(ind)
1.627	nan	-nan(ind)	-nan(ind)
1.628	nan	-nan(ind)	-nan(ind)
1.629	nan	-nan(ind)	-nan(ind)
1.63	nan	-nan(ind)	-nan(ind)
1.631	nan	-nan(ind)	-nan(ind)
1.632	nan	-nan(ind)	-nan(ind)
1.633	nan	-nan(ind)	-nan(ind)
1.634	nan	-nan(ind)	-nan(ind)
1.635	nan	-nan(ind)	-nan(ind)
1.636	nan	-nan(ind)	-nan(ind)
1.637	nan	-nan(ind)	-nan(ind)
1.638	nan	-nan(ind)	-nan(ind)
1.639	nan	-nan(ind)	-nan(ind)
1.64	nan	-nan(ind)	-nan(ind)
1.641	nan	-nan(ind)	-nan(ind)
1.642	nan	-nan(ind)	-nan(ind)
1.643	nan	-nan(ind)	-nan(ind)
1.644	nan	-nan(ind)	-nan(ind)
1.645	nan	-nan(ind)	-nan(ind)
1.646	nan	-nan(ind)	-nan(ind)
1.647	nan	-nan(ind)	-nan(ind)
1.648	nan	-nan(ind)	-nan(ind)
1.649	nan	-nan(ind)	-nan(ind)
1.65	nan	-nan(ind)	-nan(ind)
1.651	nan	-nan(ind)	-nan(ind)
1.652	nan	-nan(ind)	-nan(ind)
1.653	nan	-nan(ind)	-nan(ind)
1.654	nan	-nan(ind)	-nan(ind)
1.655	nan	-nan(ind)	-nan(ind)
1.656	nan	-nan(ind)	-nan(ind)
1.657	nan	-nan(ind)	-nan(ind)
1.658	nan	-nan(ind)	-nan(ind)
1.659	nan	-nan(ind)	-nan(ind)
1.66	nan	-nan(ind)	-nan(ind)
1.661	nan	-nan(ind)	-nan(ind)
1.662	nan	-nan(ind)	-nan(ind)
1.663	nan	-nan(ind)	-nan(ind)
1.664	nan	-nan(ind)	-nan(ind)
1.665	nan	-nan(ind)	-nan(ind)
1.666	nan	-nan(ind)	-nan(ind)
1.667	nan	-nan(ind)	-nan(ind)
1.668	nan	-nan(ind)	-nan(ind)
1.669	nan	-nan(ind)	-nan(ind)
1.67	nan	-nan(ind)	-nan(ind)
1.671	nan	-nan(ind)	-nan(ind)
1.672	nan	-nan(ind)	-nan(ind)
1.673	nan	-nan(ind)	-nan(ind)
1.674	nan	-nan(ind)	-nan(ind)
1.675	nan	-nan(ind)	-nan(ind)
1.676	nan	-nan(ind)	-nan(ind)
1.677	nan	-nan(ind)	-nan(ind)
1.678	nan	-nan(ind)	-nan(ind)
1.679	nan	-nan(ind)	-nan(ind)
1.68	nan	-nan(ind)	-nan(ind)
1.681	nan	-nan(ind)	-nan(ind)
1.682	nan	-nan(ind)	-nan(ind)
1.683	nan	-nan(ind)	-nan(ind)
1.684	nan	-nan(ind)	-nan(ind)
1.685	nan	-nan(ind)	-nan(ind)
1.686	nan	-nan(ind)	-nan(ind)
1.687	nan	-nan(ind)	-nan(ind)
1.688	nan	-nan(ind)	-nan(ind)
1.689	nan	-nan(ind)	-nan(ind)
1.69	nan	-nan(ind)	-nan(ind)
1.691	nan	-nan(ind)	-nan(ind)
1.692	nan	-nan(ind)	-nan(ind)
1.693	nan	-nan(ind)	-nan(ind)
1.694	nan	-nan(ind)	-nan(ind)
1.695	nan	-nan(ind)	-nan(ind)
1.696	nan	-nan(ind)	-nan(ind)
1.697	nan	-nan(ind)	-nan(ind)
1.698	nan	-nan(ind)	-nan(ind)
1.699	nan	-nan(ind)	-nan(ind)
1.7	nan	-nan(ind)	-nan(ind)
1.701	nan	-nan(ind)	-nan(ind)
1.702	nan	-nan(ind)	-nan(ind)
1.703	nan	-nan(ind)	-nan(ind)
1.704	nan	-nan(ind)	-nan(ind)
1.705	nan	-nan(ind)	-nan(ind)
1.706	nan	-nan(ind)	-nan(ind)
1.707	nan	-nan(ind)	-nan(ind)
1.708	nan	-nan(ind)	-nan(ind)
1.709	nan	-nan(ind)	-nan(ind)
1.71	nan	-nan(ind)	-nan(ind)
1.711	nan	-nan(ind)	-nan(ind)
1.712	nan	-nan(ind)	-nan(ind)
1.713	nan	-nan(ind)	-nan(ind)
1.714	nan	-nan(ind)	-nan(ind)
1.715	nan	-nan(ind)	-nan(ind)
1.716	nan	-nan(ind)	-nan(ind)
1.717	nan	-nan(ind)	-nan(ind)
1.718	nan	-nan(ind)	-nan(ind)
1.719	nan	-nan(ind)	-nan(ind)
1.72	nan	-nan(ind)	-nan(ind)
1.721	nan	-nan(ind)	-nan(ind)
1.722	nan	-nan(ind)	-nan(ind)
1.723	nan	-nan(ind)	-nan(ind)
1.724	nan	-nan(ind)	-nan(ind)
1.725	nan	-nan(ind)	-nan(ind)
1.726	nan	-nan(ind)	-nan(ind)
1.727	nan	-nan(ind)	-nan(ind)
1.728	nan	-nan(ind)	-nan(ind)
1.729	nan	-nan(ind)	-nan(ind)
1.73	nan	-nan(ind)	-nan(ind)
1.731	nan	-nan(ind)	-nan(ind)
1.732	nan	-nan(ind)	-nan(ind)
1.733	nan	-nan(ind)	-nan(ind)
1.734	nan	-nan(ind)	-nan(ind)
1.735	nan	-nan(ind)	-nan(ind)
1.736	nan	-nan(ind)	-nan(ind)
1.737	nan	-nan(ind)	-nan(ind)
1.738	nan	-nan(ind)	-nan(ind)
1.739	nan	-nan(ind)	-nan(ind)
1.74	nan	-nan(ind)	-nan(ind)
1.741	nan	-nan(ind)	-nan(ind)
1.742	nan	-nan(ind)	-nan(ind)
1.743	nan	-nan(ind)	-nan(ind)
1.744	nan	-nan(ind)	-nan(ind)
1.745	nan	-nan(ind)	-nan(ind)
1.746	nan	-nan(ind)	-nan(ind)
1.747	nan	-nan(ind)	-nan(ind)
1.748	nan	-nan(ind)	-nan(ind)
1.749	nan	-nan(ind)	-nan(ind)
1.75	nan	-nan(ind)	-nan(ind)
1.751	nan	-nan(ind)	-nan(ind)
1.752	nan	-nan(ind)	-nan(ind)
1.753	nan	-nan(ind)	-nan(ind)
1.754	nan	-nan(ind)	-nan(ind)
1.755	nan	-nan(ind)	-nan(ind)
1.756	nan	-nan(ind)	-nan(ind)
1.757	nan	-nan(ind)	-nan(ind)
1.758	nan	-nan(ind)	-nan(ind)
1.759	nan	-nan(ind)	-nan(ind)
1.76	nan	-nan(ind)	-nan(ind)
1.761	nan	-nan(ind)	-nan(ind)
1.762	nan	-nan(ind)	-nan(ind)
1.763	nan	-nan(ind)	-nan(ind)
1.764	nan	-nan(ind)	-nan(ind)
1.765	nan	-nan(ind)	-nan(ind)
1.766	nan	-nan(ind)	-nan(ind)
1.767	nan	-nan(ind)	-nan(ind)
1.768	nan	-nan(ind)	-nan(ind)
1.769	nan	-nan(ind)	-nan(ind)
1.77	nan	-nan(ind)	-nan(ind)
1.771	nan	-nan(ind)	-nan(ind)
1.772	nan	-nan(ind)	-nan(ind)
1.773	nan	-nan(ind)	-nan(ind)
1.774	nan	-nan(ind)	-nan(ind)
1.775	nan	-nan(ind)	-nan(ind)
1.776	nan	-nan(ind)	-nan(ind)
1.777	nan	-nan(ind)	-nan(ind)
1.778	nan	-nan(ind)	-nan(ind)
1.779	nan	-nan(ind)	-nan(ind)
1.78	nan	-nan(ind)	-nan(ind)
1.781	nan	-nan(ind)	-nan(ind)
1.782	nan	-nan(ind)	-nan(ind)
1.783	nan	-nan(ind)	-nan(ind)
1.784	nan	-nan(ind)	-nan(ind)
1.785	nan	-nan(ind)	-nan(ind)
1.786	nan	-nan(ind)	-nan(ind)
1.787	nan	-nan(ind)	-nan(ind)
1.788	nan	-nan(ind)	-nan(ind)
1.789	nan	-nan(ind)	-nan(ind)
1.79	nan	-nan(ind)	-nan(ind)
1.791	nan	-nan(ind)	-nan(ind)
1.792	nan	-nan(ind)	-nan(ind)
1.793	nan	-nan(ind)	-nan(ind)
1.794	nan	-nan(ind)	-nan(ind)
1.795	nan	-nan(ind)	-nan(ind)
1.796	nan	-nan(ind)	-nan(ind)
1.797	nan	-nan(ind)	-nan(ind)
1.798	nan	-nan(ind)	-nan(ind)
1.799	nan	-nan(ind)	-nan(ind)
1.8	nan	-nan(ind)	-nan(ind)
1.801	nan	-nan(ind)	-nan(ind)
1.802	nan	-nan(ind)	-nan(ind)
1.803	nan	-nan(ind)	-nan(ind)
1.804	nan	-nan(ind)	-nan(ind)
1.805	nan	-nan(ind)	-nan(ind)
1.806	nan	-nan(ind)	-nan(ind)
1.807	nan	-nan(ind)	-nan(ind)
1.808	nan	-nan(ind)	-nan(ind)
1.809	nan	-nan(ind)	-nan(ind)
1.81	nan	-nan(ind)	-nan(ind)
1.811	nan	-nan(ind)	-nan(ind)
1.812	nan	-nan(ind)	-nan(ind)
1.813	nan	-nan(ind)	-nan(ind)
1.814	nan	-nan(ind)	-nan(ind)
1.815	nan	-nan(ind)	-nan(ind)
1.816	nan	-nan(ind)	-nan(ind)
1.817	nan	-nan(ind)	-nan(ind)
1.818	nan	-nan(ind)	-nan(ind)
1.819	nan	-nan(ind)	-nan(ind)
1.82	nan	-nan(ind)	-nan(ind)
1.821	nan	-nan(ind)	-nan(ind)
1.822	nan	-nan(ind)	-nan(ind)
1.823	nan	-nan(ind)	-nan(ind)
1.824	nan	-nan(ind)	-nan(ind)
1.825	nan	-nan(ind)	-nan(ind)
1.826	nan	-nan(ind)	-nan(ind)
1.827	nan	-nan(ind)	-nan(ind)
1.828	nan	-nan(ind)	-nan(ind)
1.829	nan	-nan(ind)	-nan(ind)
1.83	nan	-nan(ind)	-nan(ind)
1.831	nan	-nan(ind)	-nan(ind)
1.832	nan	-nan(ind)	-nan(ind)
1.833	nan	-nan(ind)	-nan(ind)
1.834	nan	-nan(ind)	-nan(ind)
1.835	nan	-nan(ind)	-nan(ind)
1.836	nan	-nan(ind)	-nan(ind)
1.837	nan	-nan(ind)	-nan(ind)
1.838	nan	-nan(ind)	-nan(ind)
1.839	nan	-nan(ind)	-nan(ind)
1.84	nan	-nan(ind)	-nan(ind)
1.841	nan	-nan(ind)	-nan(ind)
1.842	nan	-nan(ind)	-nan(ind)
1.843	nan	-nan(ind)	-nan(ind)
1.844	nan	-nan(ind)	-nan(ind)
1.845	nan	-nan(ind)	-nan(ind)
1.846	nan	-nan(ind)	-nan(ind)
1.847	nan	-nan(ind)	-nan(ind)
1.848	nan	-nan(ind)	-nan(ind)
1.849	nan	-nan(ind)	-nan(ind)
1.85	nan	-nan(ind)	-nan(ind)
1.851	nan	-nan(ind)	-nan(ind)
1.852	nan	-nan(ind)	-nan(ind)
1.853	nan	-nan(ind)	-nan(ind)
1.854	nan	-nan(ind)	-nan(ind)
1.855	nan	-nan(ind)	-nan(ind)
1.856	nan	-nan(ind)	-nan(ind)
1.857	nan	-nan(ind)	-nan(ind)
1.858	nan	-nan(ind)	-nan(ind)
1.859	nan	-nan(ind)	-nan(ind)
1.86	nan	-nan(ind)	-nan(ind)
1.861	nan	-nan(ind)	-nan(ind)
1.862	nan	-nan(ind)	-nan(ind)
1.863	nan	-nan(ind)	-nan(ind)
1.864	nan	-nan(ind)	-nan(ind)
1.865	nan	-nan(ind)	-nan(ind)
1.866	nan	-nan(ind)	-nan(ind)
1.867	nan	-nan(ind)	-nan(ind)
1.868	nan	-nan(ind)	-nan(ind)
1.869	nan	-nan(ind)	-nan(ind)
1.87	nan	-nan(ind)	-nan(ind)
1.871	nan	-nan(ind)	-nan(ind)
1.872	nan	-nan(ind)	-nan(ind)
1.873	nan	-nan(ind)	-nan(ind)
1.874	nan	-nan(ind)	-nan(ind)
1.875	nan	-nan(ind)	-nan(ind)
1.876	nan	-nan(ind)	-nan(ind)
1.877	nan	-nan(ind)	-nan(ind)
1.878	nan	-nan(ind)	-nan(ind)
1.879	nan	-nan(ind)	-nan(ind)
1.88	nan	-nan(ind)	-nan(ind)
1.881	nan	-nan(ind)	-nan(ind)
1.882	nan	-nan(ind)	-nan(ind)
1.883	nan	-nan(ind)	-nan(ind)
1.884	nan	-nan(ind)	-nan(ind)
1.885	nan	-nan(ind)	-nan(ind)
1.886	nan	-nan(ind)	-nan(ind)
1.887	nan	-nan(ind)	-nan(ind)
1.888	nan	-nan(ind)	-nan(ind)
1.889	nan	-nan(ind)	-nan(ind)
1.89	nan	-nan(ind)	-nan(ind)
1.891	nan	-nan(ind)	-nan(ind)
1.892	nan	-nan(ind)	-nan(ind)
1.893	nan	-nan(ind)	-nan(ind)
1.894	nan	-nan(ind)	-nan(ind)
1.895	nan	-nan(ind)	-nan(ind)
1.896	nan	-nan(ind)	-nan(ind)
1.897	nan	-nan(ind)	-nan(ind)
1.898	nan	-nan(ind)	-nan(ind)
1.899	nan	-nan(ind)	-nan(ind)
1.9	nan	-nan(ind)	-nan(ind)
1.901	nan	-nan(ind)	-nan(ind)
1.902	nan	-nan(ind)	-nan(ind)
1.903	nan	-nan(ind)	-nan(ind)
1.904	nan	-nan(ind)	-nan(ind)
1.905	nan	-nan(ind)	-nan(ind)
1.906	nan	-nan(ind)	-nan(ind)
1.907	nan	-nan(ind)	-nan(ind)
1.908	nan	-nan(ind)	-nan(ind)
1.909	nan	-nan(ind)	-nan(ind)
1.91	nan	-nan(ind)	-nan(ind)
1.911	nan	-nan(ind)	-nan(ind)
1.912	nan	-nan(ind)	-nan(ind)
1.913	nan	-nan(ind)	-nan(ind)
1.914	nan	-nan(ind)	-nan(ind)
1.915	nan	-nan(ind)	-nan(ind)
1.916	nan	-nan(ind)	-nan(ind)
1.917	nan	-nan(ind)	-nan(ind)
1.918	nan	-nan(ind)	-nan(ind)
1.919	nan	-nan(ind)	-nan(ind)
1.92	nan	-nan(ind)	-nan(ind)
1.921	nan	-nan(ind)	-nan(ind)
1.922	nan	-nan(ind)	-nan(ind)
1.923	nan	-nan(ind)	-nan(ind)
1.924	nan	-nan(ind)	-nan(ind)
1.925	nan	-nan(ind)	-nan(ind)
1.926	nan	-nan(ind)	-nan(ind)
1.927	nan	-nan(ind)	-nan(ind)
1.928	nan	-nan(ind)	-nan(ind)
1.929	nan	-nan(ind)	-nan(ind)
1.93	nan	-nan(ind)	-nan(ind)
1.931	nan	-nan(ind)	-nan(ind)
1.932	nan	-nan(ind)	-nan(ind)
1.933	nan	-nan(ind)	-nan(ind)
1.934	nan	-nan(ind)	-nan(ind)
1.935	nan	-nan(ind)	-nan(ind)
1.936	nan	-nan(ind)	-nan(ind)
1.937	nan	-nan(ind)	-nan(ind)
1.938	nan	-nan(ind)	-nan(ind)
1.939	nan	-nan(ind)	-nan(ind)
1.94	nan	-nan(ind)	-nan(ind)
1.941	nan	-nan(ind)	-nan(ind)
1.942	nan	-nan(ind)	-nan(ind)
1.943	nan	-nan(ind)	-nan(ind)
1.944	nan	-nan(ind)	-nan(ind)
1.945	nan	-nan(ind)	-nan(ind)
1.946	nan	-nan(ind)	-nan(ind)
1.947	nan	-nan(ind)	-nan(ind)
1.948	nan	-nan(ind)	-nan(ind)
1.949	nan	-nan(ind)	-nan(ind)
1.95	nan	-nan(ind)	-nan(ind)
1.951	nan	-nan(ind)	-nan(ind)
1.952	nan	-nan(ind)	-nan(ind)
1.953	nan	-nan(ind)	-nan(ind)
1.954	nan	-nan(ind)	-nan(ind)
1.955	nan	-nan(ind)	-nan(ind)
1.956	nan	-nan(ind)	-nan(ind)
1.957	nan	-nan(ind)	-nan(ind)
1.958	nan	-nan(ind)	-nan(ind)
1.959	nan	-nan(ind)	-nan(ind)
1.96	nan	-nan(ind)	-nan(ind)
1.961	nan	-nan(ind)	-nan(ind)
1.962	nan	-nan(ind)	-nan(ind)
1.963	nan	-nan(ind)	-nan(ind)
1.964	nan	-nan(ind)	-nan(ind)
1.965	nan	-nan(ind)	-nan(ind)
1.966	nan	-nan(ind)	-nan(ind)
1.967	nan	-nan(ind)	-nan(ind)
1.968	nan	-nan(ind)	-nan(ind)
1.969	nan	-nan(ind)	-nan(ind)
1.97	nan	-nan(ind)	-nan(ind)
1.971	nan	-nan(ind)	-nan(ind)
1.972	nan	-nan(ind)	-nan(ind)
1.973	nan	-nan(ind)	-nan(ind)
1.974	nan	-nan(ind)	-nan(ind)
1.975	nan	-nan(ind)	-nan(ind)
1.976	nan	-nan(ind)	-nan(ind)
1.977	nan	-nan(ind)	-nan(ind)
1.978	nan	-nan(ind)	-nan(ind)
1.979	nan	-nan(ind)	-nan(ind)
1.98	nan	-nan(ind)	-nan(ind)
1.981	nan	-nan(ind)	-nan(ind)
1.982	nan	-nan(ind)	-nan(ind)
1.983	nan	-nan(ind)	-nan(ind)
1.984	nan	-nan(ind)	-nan(ind)
1.985	nan	-nan(ind)	-nan(ind)
1.986	nan	-nan(ind)	-nan(ind)
1.987	nan	-nan(ind)	-nan(ind)
1.988	nan	-nan(ind)	-nan(ind)
1.989	nan	-nan(ind)	-nan(ind)
1.99	nan	-nan(ind)	-nan(ind)
1.991	nan	-nan(ind)	-nan(ind)
1.992	nan	-nan(ind)	-nan(ind)
1.993	nan	-nan(ind)	-nan(ind)
1.994	nan	-nan(ind)	-nan(ind)
1.995	nan	-nan(ind)	-nan(ind)
1.996	nan	-nan(ind)	-nan(ind)
1.997	nan	-nan(ind)	-nan(ind)
1.998	nan	-nan(ind)	-nan(ind)
1.999	nan	-nan(ind)	-nan(ind)
2	nan	-nan(ind)	-nan(ind)
2.001	nan	-nan(ind)	-nan(ind)
2.002	nan	-nan(ind)	-nan(ind)
2.003	nan	-nan(ind)	-nan(ind)
2.004	nan	-nan(ind)	-nan(ind)
2.005	nan	-nan(ind)	-nan(ind)
2.006	nan	-nan(ind)	-nan(ind)
2.007	nan	-nan(ind)	-nan(ind)
2.008	nan	-nan(ind)	-nan(ind)
2.009	nan	-nan(ind)	-nan(ind)
2.01	nan	-nan(ind)	-nan(ind)
2.011	nan	-nan(ind)	-nan(ind)
2.012	nan	-nan(ind)	-nan(ind)
2.013	nan	-nan(ind)	-nan(ind)
2.014	nan	-nan(ind)	-nan(ind)
2.015	nan	-nan(ind)	-nan(ind)
2.016	nan	-nan(ind)	-nan(ind)
2.017	nan	-nan(ind)	-nan(ind)
2.018	nan	-nan(ind)	-nan(ind)
2.019	nan	-nan(ind)	-nan(ind)
2.02	nan	-nan(ind)	-nan(ind)
2.021	nan	-nan(ind)	-nan(ind)
2.022	nan	-nan(ind)	-nan(ind)
2.023	nan	-nan(ind)	-nan(ind)
2.024	nan	-nan(ind)	-nan(ind)
2.025	nan	-nan(ind)	-nan(ind)
2.026	nan	-nan(ind)	-nan(ind)
2.027	nan	-nan(ind)	-nan(ind)
2.028	nan	-nan(ind)	-nan(ind)
2.029	nan	-nan(ind)	-nan(ind)
2.03	nan	-nan(ind)	-nan(ind)
2.031	nan	-nan(ind)	-nan(ind)
2.032	nan	-nan(ind)	-nan(ind)
2.033	nan	-nan(ind)	-nan(ind)
2.034	nan	-nan(ind)	-nan(ind)
2.035	nan	-nan(ind)	-nan(ind)
2.036	nan	-nan(ind)	-nan(ind)
2.037	nan	-nan(ind)	-nan(ind)
2.038	nan	-nan(ind)	-nan(ind)
2.039	nan	-nan(ind)	-nan(ind)
2.04	nan	-nan(ind)	-nan(ind)
2.041	nan	-nan(ind)	-nan(ind)
2.042	nan	-nan(ind)	-nan(ind)
2.043	nan	-nan(ind)	-nan(ind)
2.044	nan	-nan(ind)	-nan(ind)
2.045	nan	-nan(ind)	-nan(ind)
2.046	nan	-nan(ind)	-nan(ind)
2.047	nan	-nan(ind)	-nan(ind)
2.048	nan	-nan(ind)	-nan(ind)
2.049	nan	-nan(ind)	-nan(ind)
2.05	nan	-nan(ind)	-nan(ind)
2.051	nan	-nan(ind)	-nan(ind)
2.052	nan	-nan(ind)	-nan(ind)
2.053	nan	-nan(ind)	-nan(ind)
2.054	nan	-nan(ind)	-nan(ind)
2.055	nan	-nan(ind)	-nan(ind)
2.056	nan	-nan(ind)	-nan(ind)
2.057	nan	-nan(ind)	-nan(ind)
2.058	nan	-nan(ind)	-nan(ind)
2.059	nan	-nan(ind)	-nan(ind)
2.06	nan	-nan(ind)	-nan(ind)
2.061	nan	-nan(ind)	-nan(ind)
2.062	nan	-nan(ind)	-nan(ind)
2.063	nan	-nan(ind)	-nan(ind)
2.064	nan	-nan(ind)	-nan(ind)
2.065	nan	-nan(ind)	-nan(ind)
2.066	nan	-nan(ind)	-nan(ind)
2.067	nan	-nan(ind)	-nan(ind)
2.068	nan	-nan(ind)	-nan(ind)
2.069	nan	-nan(ind)	-nan(ind)
2.07	nan	-nan(ind)	-nan(ind)
2.071	nan	-nan(ind)	-nan(ind)
2.072	nan	-nan(ind)	-nan(ind)
2.073	nan	-nan(ind)	-nan(ind)
2.074	nan	-nan(ind)	-nan(ind)
2.075	nan	-nan(ind)	-nan(ind)
2.076	nan	-nan(ind)	-nan(ind)
2.077	nan	-nan(ind)	-nan(ind)
2.078	nan	-nan(ind)	-nan(ind)
2.079	nan	-nan(ind)	-nan(ind)
2.08	nan	-nan(ind)	-nan(ind)
2.081	nan	-nan(ind)	-nan(ind)
2.082	nan	-nan(ind)	-nan(ind)
2.083	nan	-nan(ind)	-nan(ind)
2.084	nan	-nan(ind)	-nan(ind)
2.085	nan	-nan(ind)	-nan(ind)
2.086	nan	-nan(ind)	-nan(ind)
2.087	nan	-nan(ind)	-nan(ind)
2.088	nan	-nan(ind)	-nan(ind)
2.089	nan	-nan(ind)	-nan(ind)
2.09	nan	-nan(ind)	-nan(ind)
2.091	nan	-nan(ind)	-nan(ind)
2.092	nan	-nan(ind)	-nan(ind)
2.093	nan	-nan(ind)	-nan(ind)
2.094	nan	-nan(ind)	-nan(ind)
2.095	nan	-nan(ind)	-nan(ind)
2.096	nan	-nan(ind)	-nan(ind)
2.097	nan	-nan(ind)	-nan(ind)
2.098	nan	-nan(ind)	-nan(ind)
2.099	nan	-nan(ind)	-nan(ind)
2.1	nan	-nan(ind)	-nan(ind)
2.101	nan	-nan(ind)	-nan(ind)
2.102	nan	-nan(ind)	-nan(ind)
2.103	nan	-nan(ind)	-nan(ind)
2.104	nan	-nan(ind)	-nan(ind)
2.105	nan	-nan(ind)	-nan(ind)
2.106	nan	-nan(ind)	-nan(ind)
2.107	nan	-nan(ind)	-nan(ind)
2.108	nan	-nan(ind)	-nan(ind)
2.109	nan	-nan(ind)	-nan(ind)
2.11	nan	-nan(ind)	-nan(ind)
2.111	nan	-nan(ind)	-nan(ind)
2.112	nan	-nan(ind)	-nan(ind)
2.113	nan	-nan(ind)	-nan(ind)
2.114	nan	-nan(ind)	-nan(ind)
2.115	nan	-nan(ind)	-nan(ind)
2.116	nan	-nan(ind)	-nan(ind)
2.117	nan	-nan(ind)	-nan(ind)
2.118	nan	-nan(ind)	-nan(ind)
2.119	nan	-nan(ind)	-nan(ind)
2.12	nan	-nan(ind)	-nan(ind)
2.121	nan	-nan(ind)	-nan(ind)
2.122	nan	-nan(ind)	-nan(ind)
2.123	nan	-nan(ind)	-nan(ind)
2.124	nan	-nan(ind)	-nan(ind)
2.125	nan	-nan(ind)	-nan(ind)
2.126	nan	-nan(ind)	-nan(ind)
2.127	nan	-nan(ind)	-nan(ind)
2.128	nan	-nan(ind)	-nan(ind)
2.129	nan	-nan(ind)	-nan(ind)
2.13	nan	-nan(ind)	-nan(ind)
2.131	nan	-nan(ind)	-nan(ind)
2.132	nan	-nan(ind)	-nan(ind)
2.133	nan	-nan(ind)	-nan(ind)
2.134	nan	-nan(ind)	-nan(ind)
2.135	nan	-nan(ind)	-nan(ind)
2.136	nan	-nan(ind)	-nan(ind)
2.137	nan	-nan(ind)	-nan(ind)
2.138	nan	-nan(ind)	-nan(ind)
2.139	nan	-nan(ind)	-nan(ind)
2.14	nan	-nan(ind)	-nan(ind)
2.141	nan	-nan(ind)	-nan(ind)
2.142	nan	-nan(ind)	-nan(ind)
2.143	nan	-nan(ind)	-nan(ind)
2.144	nan	-nan(ind)	-nan(ind)
2.145	nan	-nan(ind)	-nan(ind)
2.146	nan	-nan(ind)	-nan(ind)
2.147	nan	-nan(ind)	-nan(ind)
2.148	nan	-nan(ind)	-nan(ind)
2.149	nan	-nan(ind)	-nan(ind)
2.15	nan	-nan(ind)	-nan(ind)
2.151	nan	-nan(ind)	-nan(ind)
2.152	nan	-nan(ind)	-nan(ind)
2.153	nan	-nan(ind)	-nan(ind)
2.154	nan	-nan(ind)	-nan(ind)
2.155	nan	-nan(ind)	-nan(ind)
2.156	nan	-nan(ind)	-nan(ind)
2.157	nan	-nan(ind)	-nan(ind)
2.158	nan	-nan(ind)	-nan(ind)
2.159	nan	-nan(ind)	-nan(ind)
2.16	nan	-nan(ind)	-nan(ind)
2.161	nan	-nan(ind)	-nan(ind)
2.162	nan	-nan(ind)	-nan(ind)
2.163	nan	-nan(ind)	-nan(ind)
2.164	nan	-nan(ind)	-nan(ind)
2.165	nan	-nan(ind)	-nan(ind)
2.166	nan	-nan(ind)	-nan(ind)
2.167	nan	-nan(ind)	-nan(ind)
2.168	nan	-nan(ind)	-nan(ind)
2.169	nan	-nan(ind)	-nan(ind)
2.17	nan	-nan(ind)	-nan(ind)
2.171	nan	-nan(ind)	-nan(ind)
2.172	nan	-nan(ind)	-nan(ind)
2.173	nan	-nan(ind)	-nan(ind)
2.174	nan	-nan(ind)	-nan(ind)
2.175	nan	-nan(ind)	-nan(ind)
2.176	nan	-nan(ind)	-nan(ind)
2.177	nan	-nan(ind)	-nan(ind)
2.178	nan	-nan(ind)	-nan(ind)
2.179	nan	-nan(ind)	-nan(ind)
2.18	nan	-nan(ind)	-nan(ind)
2.181	nan	-nan(ind)	-nan(ind)
2.182	nan	-nan(ind)	-nan(ind)
2.183	nan	-nan(ind)	-nan(ind)
2.184	nan	-nan(ind)	-nan(ind)
2.185	nan	-nan(ind)	-nan(ind)
2.186	nan	-nan(ind)	-nan(ind)
2.187	nan	-nan(ind)	-nan(ind)
2.188	nan	-nan(ind)	-nan(ind)
2.189	nan	-nan(ind)	-nan(ind)
2.19	nan	-nan(ind)	-nan(ind)
2.191	nan	-nan(ind)	-nan(ind)
2.192	nan	-nan(ind)	-nan(ind)
2.193	nan	-nan(ind)	-nan(ind)
2.194	nan	-nan(ind)	-nan(ind)
2.195	nan	-nan(ind)	-nan(ind)
2.196	nan	-nan(ind)	-nan(ind)
2.197	nan	-nan(ind)	-nan(ind)
2.198	nan	-nan(ind)	-nan(ind)
2.199	nan	-nan(ind)	-nan(ind)
2.2	nan	-nan(ind)	-nan(ind)
2.201	nan	-nan(ind)	-nan(ind)
2.202	nan	-nan(ind)	-nan(ind)
2.203	nan	-nan(ind)	-nan(ind)
2.204	nan	-nan(ind)	-nan(ind)
2.205	nan	-nan(ind)	-nan(ind)
2.206	nan	-nan(ind)	-nan(ind)
2.207	nan	-nan(ind)	-nan(ind)
2.208	nan	-nan(ind)	-nan(ind)
2.209	nan	-nan(ind)	-nan(ind)
2.21	nan	-nan(ind)	-nan(ind)
2.211	nan	-nan(ind)	-nan(ind)
2.212	nan	-nan(ind)	-nan(ind)
2.213	nan	-nan(ind)	-nan(ind)
2.214	nan	-nan(ind)	-nan(ind)
2.215	nan	-nan(ind)	-nan(ind)
2.216	nan	-nan(ind)	-nan(ind)
2.217	nan	-nan(ind)	-nan(ind)
2.218	nan	-nan(ind)	-nan(ind)
2.219	nan	-nan(ind)	-nan(ind)
2.22	nan	-nan(ind)	-nan(ind)
2.221	nan	-nan(ind)	-nan(ind)
2.222	nan	-nan(ind)	-nan(ind)
2.223	nan	-nan(ind)	-nan(ind)
2.224	nan	-nan(ind)	-nan(ind)
2.225	nan	-nan(ind)	-nan(ind)
2.226	nan	-nan(ind)	-nan(ind)
2.227	nan	-nan(ind)	-nan(ind)
2.228	nan	-nan(ind)	-nan(ind)
2.229	nan	-nan(ind)	-nan(ind)
2.23	nan	-nan(ind)	-nan(ind)
2.231	nan	-nan(ind)	-nan(ind)
2.232	nan	-nan(ind)	-nan(ind)
2.233	nan	-nan(ind)	-nan(ind)
2.234	nan	-nan(ind)	-nan(ind)
2.235	nan	-nan(ind)	-nan(ind)
2.236	nan	-nan(ind)	-nan(ind)
2.237	nan	-nan(ind)	-nan(ind)
2.238	nan	-nan(ind)	-nan(ind)
2.239	nan	-nan(ind)	-nan(ind)
2.24	nan	-nan(ind)	-nan(ind)
2.241	nan	-nan(ind)	-nan(ind)
2.242	nan	-nan(ind)	-nan(ind)
2.243	nan	-nan(ind)	-nan(ind)
2.244	nan	-nan(ind)	-nan(ind)
2.245	nan	-nan(ind)	-nan(ind)
2.246	nan	-nan(ind)	-nan(ind)
2.247	nan	-nan(ind)	-nan(ind)
2.248	nan	-nan(ind)	-nan(ind)
2.249	nan	-nan(ind)	-nan(ind)
2.25	nan	-nan(ind)	-nan(ind)
2.251	nan	-nan(ind)	-nan(ind)
2.252	nan	-nan(ind)	-nan(ind)
2.253	nan	-nan(ind)	-nan(ind)
2.254	nan	-nan(ind)	-nan(ind)
2.255	nan	-nan(ind)	-nan(ind)
2.256	nan	-nan(ind)	-nan(ind)
2.257	nan	-nan(ind)	-nan(ind)
2.258	nan	-nan(ind)	-nan(ind)
2.259	nan	-nan(ind)	-nan(ind)
2.26	nan	-nan(ind)	-nan(ind)
2.261	nan	-nan(ind)	-nan(ind)
2.262	nan	-nan(ind)	-nan(ind)
2.263	nan	-nan(ind)	-nan(ind)
2.264	nan	-nan(ind)	-nan(ind)
2.265	nan	-nan(ind)	-nan(ind)
2.266	nan	-nan(ind)	-nan(ind)
2.267	nan	-nan(ind)	-nan(ind)
2.268	nan	-nan(ind)	-nan(ind)
2.269	nan	-nan(ind)	-nan(ind)
2.27	nan	-nan(ind)	-nan(ind)
2.271	nan	-nan(ind)	-nan(ind)
2.272	nan	-nan(ind)	-nan(ind)
2.273	nan	-nan(ind)	-nan(ind)
2.274	nan	-nan(ind)	-nan(ind)
2.275	nan	-nan(ind)	-nan(ind)
2.276	nan	-nan(ind)	-nan(ind)
2.277	nan	-nan(ind)	-nan(ind)
2.278	nan	-nan(ind)	-nan(ind)
2.279	nan	-nan(ind)	-nan(ind)
2.28	nan	-nan(ind)	-nan(ind)
2.281	nan	-nan(ind)	-nan(ind)
2.282	nan	-nan(ind)	-nan(ind)
2.283	nan	-nan(ind)	-nan(ind)
2.284	nan	-nan(ind)	-nan(ind)
2.285	nan	-nan(ind)	-nan(ind)
2.286	nan	-nan(ind)	-nan(ind)
2.287	nan	-nan(ind)	-nan(ind)
2.288	nan	-nan(ind)	-nan(ind)
2.289	nan	-nan(ind)	-nan(ind)
2.29	nan	-nan(ind)	-nan(ind)
2.291	nan	-nan(ind)	-nan(ind)
2.292	nan	-nan(ind)	-nan(ind)
2.293	nan	-nan(ind)	-nan(ind)
2.294	nan	-nan(ind)	-nan(ind)
2.295	nan	-nan(ind)	-nan(ind)
2.296	nan	-nan(ind)	-nan(ind)
2.297	nan	-nan(ind)	-nan(ind)
2.298	nan	-nan(ind)	-nan(ind)
2.299	nan	-nan(ind)	-nan(ind)
2.3	nan	-nan(ind)	-nan(ind)
2.301	nan	-nan(ind)	-nan(ind)
2.302	nan	-nan(ind)	-nan(ind)
2.303	nan	-nan(ind)	-nan(ind)
2.304	nan	-nan(ind)	-nan(ind)
2.305	nan	-nan(ind)	-nan(ind)
2.306	nan	-nan(ind)	-nan(ind)
2.307	nan	-nan(ind)	-nan(ind)
2.308	nan	-nan(ind)	-nan(ind)
2.309	nan	-nan(ind)	-nan(ind)
2.31	nan	-nan(ind)	-nan(ind)
2.311	nan	-nan(ind)	-nan(ind)
2.312	nan	-nan(ind)	-nan(ind)
2.313	nan	-nan(ind)	-nan(ind)
2.314	nan	-nan(ind)	-nan(ind)
2.315	nan	-nan(ind)	-nan(ind)
2.316	nan	-nan(ind)	-nan(ind)
2.317	nan	-nan(ind)	-nan(ind)
2.318	nan	-nan(ind)	-nan(ind)
2.319	nan	-nan(ind)	-nan(ind)
2.32	nan	-nan(ind)	-nan(ind)
2.321	nan	-nan(ind)	-nan(ind)
2.322	nan	-nan(ind)	-nan(ind)
2.323	nan	-nan(ind)	-nan(ind)
2.324	nan	-nan(ind)	-nan(ind)
2.325	nan	-nan(ind)	-nan(ind)
2.326	nan	-nan(ind)	-nan(ind)
2.327	nan	-nan(ind)	-nan(ind)
2.328	nan	-nan(ind)	-nan(ind)
2.329	nan	-nan(ind)	-nan(ind)
2.33	nan	-nan(ind)	-nan(ind)
2.331	nan	-nan(ind)	-nan(ind)
2.332	nan	-nan(ind)	-nan(ind)
2.333	nan	-nan(ind)	-nan(ind)
2.334	nan	-nan(ind)	-nan(ind)
2.335	nan	-nan(ind)	-nan(ind)
2.336	nan	-nan(ind)	-nan(ind)
2.337	nan	-nan(ind)	-nan(ind)
2.338	nan	-nan(ind)	-nan(ind)
2.339	nan	-nan(ind)	-nan(ind)
2.34	nan	-nan(ind)	-nan(ind)
2.341	nan	-nan(ind)	-nan(ind)
2.342	nan	-nan(ind)	-nan(ind)
2.343	nan	-nan(ind)	-nan(ind)
2.344	nan	-nan(ind)	-nan(ind)
2.345	nan	-nan(ind)	-nan(ind)
2.346	nan	-nan(ind)	-nan(ind)
2.347	nan	-nan(ind)	-nan(ind)
2.348	nan	-nan(ind)	-nan(ind)
2.349	nan	-nan(ind)	-nan(ind)
2.35	nan	-nan(ind)	-nan(ind)
2.351	nan	-nan(ind)	-nan(ind)
2.352	nan	-nan(ind)	-nan(ind)
2.353	nan	-nan(ind)	-nan(ind)
2.354	nan	-nan(ind)	-nan(ind)
2.355	nan	-nan(ind)	-nan(ind)
2.356	nan	-nan(ind)	-nan(ind)
2.357	nan	-nan(ind)	-nan(ind)
2.358	nan	-nan(ind)	-nan(ind)
2.359	nan	-nan(ind)	-nan(ind)
2.36	nan	-nan(ind)	-nan(ind)
2.361	nan	-nan(ind)	-nan(ind)
2.362	nan	-nan(ind)	-nan(ind)
2.363	nan	-nan(ind)	-nan(ind)
2.364	nan	-nan(ind)	-nan(ind)
2.365	nan	-nan(ind)	-nan(ind)
2.366	nan	-nan(ind)	-nan(ind)
2.367	nan	-nan(ind)	-nan(ind)
2.368	nan	-nan(ind)	-nan(ind)
2.369	nan	-nan(ind)	-nan(ind)
2.37	nan	-nan(ind)	-nan(ind)
2.371	nan	-nan(ind)	-nan(ind)
2.372	nan	-nan(ind)	-nan(ind)
2.373	nan	-nan(ind)	-nan(ind)
2.374	nan	-nan(ind)	-nan(ind)
2.375	nan	-nan(ind)	-nan(ind)
2.376	nan	-nan(ind)	-nan(ind)
2.377	nan	-nan(ind)	-nan(ind)
2.378	nan	-nan(ind)	-nan(ind)
2.379	nan	-nan(ind)	-nan(ind)
2.38	nan	-nan(ind)	-nan(ind)
2.381	nan	-nan(ind)	-nan(ind)
2.382	nan	-nan(ind)	-nan(ind)
2.383	nan	-nan(ind)	-nan(ind)
2.384	nan	-nan(ind)	-nan(ind)
2.385	nan	-nan(ind)	-nan(ind)
2.386	nan	-nan(ind)	-nan(ind)
2.387	nan	-nan(ind)	-nan(ind)
2.388	nan	-nan(ind)	-nan(ind)
2.389	nan	-nan(ind)	-nan(ind)
2.39	nan	-nan(ind)	-nan(ind)
2.391	nan	-nan(ind)	-nan(ind)
2.392	nan	-nan(ind)	-nan(ind)
2.393	nan	-nan(ind)	-nan(ind)
2.394	nan	-nan(ind)	-nan(ind)
2.395	nan	-nan(ind)	-nan(ind)
2.396	nan	-nan(ind)	-nan(ind)
2.397	nan	-nan(ind)	-nan(ind)
2.398	nan	-nan(ind)	-nan(ind)
2.399	nan	-nan(ind)	-nan(ind)
2.4	nan	-nan(ind)	-nan(ind)
2.401	nan	-nan(ind)	-nan(ind)
2.402	nan	-nan(ind)	-nan(ind)
2.403	nan	-nan(ind)	-nan(ind)
2.404	nan	-nan(ind)	-nan(ind)
2.405	nan	-nan(ind)	-nan(ind)
2.406	nan	-nan(ind)	-nan(ind)
2.407	nan	-nan(ind)	-nan(ind)
2.408	nan	-nan(ind)	-nan(ind)
2.409	nan	-nan(ind)	-nan(ind)
2.41	nan	-nan(ind)	-nan(ind)
2.411	nan	-nan(ind)	-nan(ind)
2.412	nan	-nan(ind)	-nan(ind)
2.413	nan	-nan(ind)	-nan(ind)
2.414	nan	-nan(ind)	-nan(ind)
2.415	nan	-nan(ind)	-nan(ind)
2.416	nan	-nan(ind)	-nan(ind)
2.417	nan	-nan(ind)	-nan(ind)
2.418	nan	-nan(ind)	-nan(ind)
2.419	nan	-nan(ind)	-nan(ind)
2.42	nan	-nan(ind)	-nan(ind)
2.421	nan	-nan(ind)	-nan(ind)
2.422	nan	-nan(ind)	-nan(ind)
2.423	nan	-nan(ind)	-nan(ind)
2.424	nan	-nan(ind)	-nan(ind)
2.425	nan	-nan(ind)	-nan(ind)
2.426	nan	-nan(ind)	-nan(ind)
2.427	nan	-nan(ind)	-nan(ind)
2.428	nan	-nan(ind)	-nan(ind)
2.429	nan	-nan(ind)	-nan(ind)
2.43	nan	-nan(ind)	-nan(ind)
2.431	nan	-nan(ind)	-nan(ind)
2.432	nan	-nan(ind)	-nan(ind)
2.433	nan	-nan(ind)	-nan(ind)
2.434	nan	-nan(ind)	-nan(ind)
2.435	nan	-nan(ind)	-nan(ind)
2.436	nan	-nan(ind)	-nan(ind)
2.437	nan	-nan(ind)	-nan(ind)
2.438	nan	-nan(ind)	-nan(ind)
2.439	nan	-nan(ind)	-nan(ind)
2.44	nan	-nan(ind)	-nan(ind)
2.441	nan	-nan(ind)	-nan(ind)
2.442	nan	-nan(ind)	-nan(ind)
2.443	nan	-nan(ind)	-nan(ind)
2.444	nan	-nan(ind)	-nan(ind)
2.445	nan	-nan(ind)	-nan(ind)
2.446	nan	-nan(ind)	-nan(ind)
2.447	nan	-nan(ind)	-nan(ind)
2.448	nan	-nan(ind)	-nan(ind)
2.449	nan	-nan(ind)	-nan(ind)
2.45	nan	-nan(ind)	-nan(ind)
2.451	nan	-nan(ind)	-nan(ind)
2.452	nan	-nan(ind)	-nan(ind)
2.453	nan	-nan(ind)	-nan(ind)
2.454	nan	-nan(ind)	-nan(ind)
2.455	nan	-nan(ind)	-nan(ind)
2.456	nan	-nan(ind)	-nan(ind)
2.457	nan	-nan(ind)	-nan(ind)
2.458	nan	-nan(ind)	-nan(ind)
2.459	nan	-nan(ind)	-nan(ind)
2.46	nan	-nan(ind)	-nan(ind)
2.461	nan	-nan(ind)	-nan(ind)
2.462	nan	-nan(ind)	-nan(ind)
2.463	nan	-nan(ind)	-nan(ind)
2.464	nan	-nan(ind)	-nan(ind)
2.465	nan	-nan(ind)	-nan(ind)
2.466	nan	-nan(ind)	-nan(ind)
2.467	nan	-nan(ind)	-nan(ind)
2.468	nan	-nan(ind)	-nan(ind)
2.469	nan	-nan(ind)	-nan(ind)
2.47	nan	-nan(ind)	-nan(ind)
2.471	nan	-nan(ind)	-nan(ind)
2.472	nan	-nan(ind)	-nan(ind)
2.473	nan	-nan(ind)	-nan(ind)
2.474	nan	-nan(ind)	-nan(ind)
2.475	nan	-nan(ind)	-nan(ind)
2.476	nan	-nan(ind)	-nan(ind)
2.477	nan	-nan(ind)	-nan(ind)
2.478	nan	-nan(ind)	-nan(ind)
2.479	nan	-nan(ind)	-nan(ind)
2.48	nan	-nan(ind)	-nan(ind)
2.481	nan	-nan(ind)	-nan(ind)
2.482	nan	-nan(ind)	-nan(ind)
2.483	nan	-nan(ind)	-nan(ind)
2.484	nan	-nan(ind)	-nan(ind)
2.485	nan	-nan(ind)	-nan(ind)
2.486	nan	-nan(ind)	-nan(ind)
2.487	nan	-nan(ind)	-nan(ind)
2.488	nan	-nan(ind)	-nan(ind)
2.489	nan	-nan(ind)	-nan(ind)
2.49	nan	-nan(ind)	-nan(ind)
2.491	nan	-nan(ind)	-nan(ind)
2.492	nan	-nan(ind)	-nan(ind)
2.493	nan	-nan(ind)	-nan(ind)
2.494	nan	-nan(ind)	-nan(ind)
2.495	nan	-nan(ind)	-nan(ind)
2.496	nan	-nan(ind)	-nan(ind)
2.497	nan	-nan(ind)	-nan(ind)
2.498	nan	-nan(ind)	-nan(ind)
2.499	nan	-nan(ind)	-nan(ind)
2.5	nan	-nan(ind)	-nan(ind)
2.501	nan	-nan(ind)	-nan(ind)
2.502	nan	-nan(ind)	-nan(ind)
2.503	nan	-nan(ind)	-nan(ind)
2.504	nan	-nan(ind)	-nan(ind)
2.505	nan	-nan(ind)	-nan(ind)
2.506	nan	-nan(ind)	-nan(ind)
2.507	nan	-nan(ind)	-nan(ind)
2.508	nan	-nan(ind)	-nan(ind)
2.509	nan	-nan(ind)	-nan(ind)
2.51	nan	-nan(ind)	-nan(ind)
2.511	nan	-nan(ind)	-nan(ind)
2.512	nan	-nan(ind)	-nan(ind)
2.513	nan	-nan(ind)	-nan(ind)
2.514	nan	-nan(ind)	-nan(ind)
2.515	nan	-nan(ind)	-nan(ind)
2.516	nan	-nan(ind)	-nan(ind)
2.517	nan	-nan(ind)	-nan(ind)
2.518	nan	-nan(ind)	-nan(ind)
2.519	nan	-nan(ind)	-nan(ind)
2.52	nan	-nan(ind)	-nan(ind)
2.521	nan	-nan(ind)	-nan(ind)
2.522	nan	-nan(ind)	-nan(ind)
2.523	nan	-nan(ind)	-nan(ind)
2.524	nan	-nan(ind)	-nan(ind)
2.525	nan	-nan(ind)	-nan(ind)
2.526	nan	-nan(ind)	-nan(ind)
2.527	nan	-nan(ind)	-nan(ind)
2.528	nan	-nan(ind)	-nan(ind)
2.529	nan	-nan(ind)	-nan(ind)
2.53	nan	-nan(ind)	-nan(ind)
2.531	nan	-nan(ind)	-nan(ind)
2.532	nan	-nan(ind)	-nan(ind)
2.533	nan	-nan(ind)	-nan(ind)
2.534	nan	-nan(ind)	-nan(ind)
2.535	nan	-nan(ind)	-nan(ind)
2.536	nan	-nan(ind)	-nan(ind)
2.537	nan	-nan(ind)	-nan(ind)
2.538	nan	-nan(ind)	-nan(ind)
2.539	nan	-nan(ind)	-nan(ind)
2.54	nan	-nan(ind)	-nan(ind)
2.541	nan	-nan(ind)	-nan(ind)
2.542	nan	-nan(ind)	-nan(ind)
2.543	nan	-nan(ind)	-nan(ind)
2.544	nan	-nan(ind)	-nan(ind)
2.545	nan	-nan(ind)	-nan(ind)
2.546	nan	-nan(ind)	-nan(ind)
2.547	nan	-nan(ind)	-nan(ind)
2.548	nan	-nan(ind)	-nan(ind)
2.549	nan	-nan(ind)	-nan(ind)
2.55	nan	-nan(ind)	-nan(ind)
2.551	nan	-nan(ind)	-nan(ind)
2.552	nan	-nan(ind)	-nan(ind)
2.553	nan	-nan(ind)	-nan(ind)
2.554	nan	-nan(ind)	-nan(ind)
2.555	nan	-nan(ind)	-nan(ind)
2.556	nan	-nan(ind)	-nan(ind)
2.557	nan	-nan(ind)	-nan(ind)
2.558	nan	-nan(ind)	-nan(ind)
2.559	nan	-nan(ind)	-nan(ind)
2.56	nan	-nan(ind)	-nan(ind)
2.561	nan	-nan(ind)	-nan(ind)
2.562	nan	-nan(ind)	-nan(ind)
2.563	nan	-nan(ind)	-nan(ind)
2.564	nan	-nan(ind)	-nan(ind)
2.565	nan	-nan(ind)	-nan(ind)
2.566	nan	-nan(ind)	-nan(ind)
2.567	nan	-nan(ind)	-nan(ind)
2.568	nan	-nan(ind)	-nan(ind)
2.569	nan	-nan(ind)	-nan(ind)
2.57	nan	-nan(ind)	-nan(ind)
2.571	nan	-nan(ind)	-nan(ind)
2.572	nan	-nan(ind)	-nan(ind)
2.573	nan	-nan(ind)	-nan(ind)
2.574	nan	-nan(ind)	-nan(ind)
2.575	nan	-nan(ind)	-nan(ind)
2.576	nan	-nan(ind)	-nan(ind)
2.577	nan	-nan(ind)	-nan(ind)
2.578	nan	-nan(ind)	-nan(ind)
2.579	nan	-nan(ind)	-nan(ind)
2.58	nan	-nan(ind)	-nan(ind)
2.581	nan	-nan(ind)	-nan(ind)
2.582	nan	-nan(ind)	-nan(ind)
2.583	nan	-nan(ind)	-nan(ind)
2.584	nan	-nan(ind)	-nan(ind)
2.585	nan	-nan(ind)	-nan(ind)
2.586	nan	-nan(ind)	-nan(ind)
2.587	nan	-nan(ind)	-nan(ind)
2.588	nan	-nan(ind)	-nan(ind)
2.589	nan	-nan(ind)	-nan(ind)
2.59	nan	-nan(ind)	-nan(ind)
2.591	nan	-nan(ind)	-nan(ind)
2.592	nan	-nan(ind)	-nan(ind)
2.593	nan	-nan(ind)	-nan(ind)
2.594	nan	-nan(ind)	-nan(ind)
2.595	nan	-nan(ind)	-nan(ind)
2.596	nan	-nan(ind)	-nan(ind)
2.597	nan	-nan(ind)	-nan(ind)
2.598	nan	-nan(ind)	-nan(ind)
2.599	nan	-nan(ind)	-nan(ind)
2.6	nan	-nan(ind)	-nan(ind)
2.601	nan	-nan(ind)	-nan(ind)
2.602	nan	-nan(ind)	-nan(ind)
2.603	nan	-nan(ind)	-nan(ind)
2.604	nan	-nan(ind)	-nan(ind)
2.605	nan	-nan(ind)	-nan(ind)
2.606	nan	-nan(ind)	-nan(ind)
2.607	nan	-nan(ind)	-nan(ind)
2.608	nan	-nan(ind)	-nan(ind)
2.609	nan	-nan(ind)	-nan(ind)
2.61	nan	-nan(ind)	-nan(ind)
2.611	nan	-nan(ind)	-nan(ind)
2.612	nan	-nan(ind)	-nan(ind)
2.613	nan	-nan(ind)	-nan(ind)
2.614	nan	-nan(ind)	-nan(ind)
2.615	nan	-nan(ind)	-nan(ind)
2.616	nan	-nan(ind)	-nan(ind)
2.617	nan	-nan(ind)	-nan(ind)
2.618	nan	-nan(ind)	-nan(ind)
2.619	nan	-nan(ind)	-nan(ind)
2.62	nan	-nan(ind)	-nan(ind)
2.621	nan	-nan(ind)	-nan(ind)
2.622	nan	-nan(ind)	-nan(ind)
2.623	nan	-nan(ind)	-nan(ind)
2.624	nan	-nan(ind)	-nan(ind)
2.625	nan	-nan(ind)	-nan(ind)
2.626	nan	-nan(ind)	-nan(ind)
2.627	nan	-nan(ind)	-nan(ind)
2.628	nan	-nan(ind)	-nan(ind)
2.629	nan	-nan(ind)	-nan(ind)
2.63	nan	-nan(ind)	-nan(ind)
2.631	nan	-nan(ind)	-nan(ind)
2.632	nan	-nan(ind)	-nan(ind)
2.633	nan	-nan(ind)	-nan(ind)
2.634	nan	-nan(ind)	-nan(ind)
2.635	nan	-nan(ind)	-nan(ind)
2.636	nan	-nan(ind)	-nan(ind)
2.637	nan	-nan(ind)	-nan(ind)
2.638	nan	-nan(ind)	-nan(ind)
2.639	nan	-nan(ind)	-nan(ind)
2.64	nan	-nan(ind)	-nan(ind)
2.641	nan	-nan(ind)	-nan(ind)
2.642	nan	-nan(ind)	-nan(ind)
2.643	nan	-nan(ind)	-nan(ind)
2.644	nan	-nan(ind)	-nan(ind)
2.645	nan	-nan(ind)	-nan(ind)
2.646	nan	-nan(ind)	-nan(ind)
2.647	nan	-nan(ind)	-nan(ind)
2.648	nan	-nan(ind)	-nan(ind)
2.649	nan	-nan(ind)	-nan(ind)
2.65	nan	-nan(ind)	-nan(ind)
2.651	nan	-nan(ind)	-nan(ind)
2.652	nan	-nan(ind)	-nan(ind)
2.653	nan	-nan(ind)	-nan(ind)
2.654	nan	-nan(ind)	-nan(ind)
2.655	nan	-nan(ind)	-nan(ind)
2.656	nan	-nan(ind)	-nan(ind)
2.657	nan	-nan(ind)	-nan(ind)
2.658	nan	-nan(ind)	-nan(ind)
2.659	nan	-nan(ind)	-nan(ind)
2.66	nan	-nan(ind)	-nan(ind)
2.661	nan	-nan(ind)	-nan(ind)
2.662	nan	-nan(ind)	-nan(ind)
2.663	nan	-nan(ind)	-nan(ind)
2.664	nan	-nan(ind)	-nan(ind)
2.665	nan	-nan(ind)	-nan(ind)
2.666	nan	-nan(ind)	-nan(ind)
2.667	nan	-nan(ind)	-nan(ind)
2.668	nan	-nan(ind)	-nan(ind)
2.669	nan	-nan(ind)	-nan(ind)
2.67	nan	-nan(ind)	-nan(ind)
2.671	nan	-nan(ind)	-nan(ind)
2.672	nan	-nan(ind)	-nan(ind)
2.673	nan	-nan(ind)	-nan(ind)
2.674	nan	-nan(ind)	-nan(ind)
2.675	nan	-nan(ind)	-nan(ind)
2.676	nan	-nan(ind)	-nan(ind)
2.677	nan	-nan(ind)	-nan(ind)
2.678	nan	-nan(ind)	-nan(ind)
2.679	nan	-nan(ind)	-nan(ind)
2.68	nan	-nan(ind)	-nan(ind)
2.681	nan	-nan(ind)	-nan(ind)
2.682	nan	-nan(ind)	-nan(ind)
2.683	nan	-nan(ind)	-nan(ind)
2.684	nan	-nan(ind)	-nan(ind)
2.685	nan	-nan(ind)	-nan(ind)
2.686	nan	-nan(ind)	-nan(ind)
2.687	nan	-nan(ind)	-nan(ind)
2.688	nan	-nan(ind)	-nan(ind)
2.689	nan	-nan(ind)	-nan(ind)
2.69	nan	-nan(ind)	-nan(ind)
2.691	nan	-nan(ind)	-nan(ind)
2.692	nan	-nan(ind)	-nan(ind)
2.693	nan	-nan(ind)	-nan(ind)
2.694	nan	-nan(ind)	-nan(ind)
2.695	nan	-nan(ind)	-nan(ind)
2.696	nan	-nan(ind)	-nan(ind)
2.697	nan	-nan(ind)	-nan(ind)
2.698	nan	-nan(ind)	-nan(ind)
2.699	nan	-nan(ind)	-nan(ind)
2.7	nan	-nan(ind)	-nan(ind)
2.701	nan	-nan(ind)	-nan(ind)
2.702	nan	-nan(ind)	-nan(ind)
2.703	nan	-nan(ind)	-nan(ind)
2.704	nan	-nan(ind)	-nan(ind)
2.705	nan	-nan(ind)	-nan(ind)
2.706	nan	-nan(ind)	-nan(ind)
2.707	nan	-nan(ind)	-nan(ind)
2.708	nan	-nan(ind)	-nan(ind)
2.709	nan	-nan(ind)	-nan(ind)
2.71	nan	-nan(ind)	-nan(ind)
2.711	nan	-nan(ind)	-nan(ind)
2.712	nan	-nan(ind)	-nan(ind)
2.713	nan	-nan(ind)	-nan(ind)
2.714	nan	-nan(ind)	-nan(ind)
2.715	nan	-nan(ind)	-nan(ind)
2.716	nan	-nan(ind)	-nan(ind)
2.717	nan	-nan(ind)	-nan(ind)
2.718	nan	-nan(ind)	-nan(ind)
2.719	nan	-nan(ind)	-nan(ind)
2.72	nan	-nan(ind)	-nan(ind)
2.721	nan	-nan(ind)	-nan(ind)
2.722	nan	-nan(ind)	-nan(ind)
2.723	nan	-nan(ind)	-nan(ind)
2.724	nan	-nan(ind)	-nan(ind)
2.725	nan	-nan(ind)	-nan(ind)
2.726	nan	-nan(ind)	-nan(ind)
2.727	nan	-nan(ind)	-nan(ind)
2.728	nan	-nan(ind)	-nan(ind)
2.729	nan	-nan(ind)	-nan(ind)
2.73	nan	-nan(ind)	-nan(ind)
2.731	nan	-nan(ind)	-nan(ind)
2.732	nan	-nan(ind)	-nan(ind)
2.733	nan	-nan(ind)	-nan(ind)
2.734	nan	-nan(ind)	-nan(ind)
2.735	nan	-nan(ind)	-nan(ind)
2.736	nan	-nan(ind)	-nan(ind)
2.737	nan	-nan(ind)	-nan(ind)
2.738	nan	-nan(ind)	-nan(ind)
2.739	nan	-nan(ind)	-nan(ind)
2.74	nan	-nan(ind)	-nan(ind)
2.741	nan	-nan(ind)	-nan(ind)
2.742	nan	-nan(ind)	-nan(ind)
2.743	nan	-nan(ind)	-nan(ind)
2.744	nan	-nan(ind)	-nan(ind)
2.745	nan	-nan(ind)	-nan(ind)
2.746	nan	-nan(ind)	-nan(ind)
2.747	nan	-nan(ind)	-nan(ind)
2.748	nan	-nan(ind)	-nan(ind)
2.749	nan	-nan(ind)	-nan(ind)
2.75	nan	-nan(ind)	-nan(ind)
2.751	nan	-nan(ind)	-nan(ind)
2.752	nan	-nan(ind)	-nan(ind)
2.753	nan	-nan(ind)	-nan(ind)
2.754	nan	-nan(ind)	-nan(ind)
2.755	nan	-nan(ind)	-nan(ind)
2.756	nan	-nan(ind)	-nan(ind)
2.757	nan	-nan(ind)	-nan(ind)
2.758	nan	-nan(ind)	-nan(ind)
2.759	nan	-nan(ind)	-nan(ind)
2.76	nan	-nan(ind)	-nan(ind)
2.761	nan	-nan(ind)	-nan(ind)
2.762	nan	-nan(ind)	-nan(ind)
2.763	nan	-nan(ind)	-nan(ind)
2.764	nan	-nan(ind)	-nan(ind)
2.765	nan	-nan(ind)	-nan(ind)
2.766	nan	-nan(ind)	-nan(ind)
2.767	nan	-nan(ind)	-nan(ind)
2.768	nan	-nan(ind)	-nan(ind)
2.769	nan	-nan(ind)	-nan(ind)
2.77	nan	-nan(ind)	-nan(ind)
2.771	nan	-nan(ind)	-nan(ind)
2.772	nan	-nan(ind)	-nan(ind)
2.773	nan	-nan(ind)	-nan(ind)
2.774	nan	-nan(ind)	-nan(ind)
2.775	nan	-nan(ind)	-nan(ind)
2.776	nan	-nan(ind)	-nan(ind)
2.777	nan	-nan(ind)	-nan(ind)
2.778	nan	-nan(ind)	-nan(ind)
2.779	nan	-nan(ind)	-nan(ind)
2.78	nan	-nan(ind)	-nan(ind)
2.781	nan	-nan(ind)	-nan(ind)
2.782	nan	-nan(ind)	-nan(ind)
2.783	nan	-nan(ind)	-nan(ind)
2.784	nan	-nan(ind)	-nan(ind)
2.785	nan	-nan(ind)	-nan(ind)
2.786	nan	-nan(ind)	-nan(ind)
2.787	nan	-nan(ind)	-nan(ind)
2.788	nan	-nan(ind)	-nan(ind)
2.789	nan	-nan(ind)	-nan(ind)
2.79	nan	-nan(ind)	-nan(ind)
2.791	nan	-nan(ind)	-nan(ind)
2.792	nan	-nan(ind)	-nan(ind)
2.793	nan	-nan(ind)	-nan(ind)
2.794	nan	-nan(ind)	-nan(ind)
2.795	nan	-nan(ind)	-nan(ind)
2.796	nan	-nan(ind)	-nan(ind)
2.797	nan	-nan(ind)	-nan(ind)
2.798	nan	-nan(ind)	-nan(ind)
2.799	nan	-nan(ind)	-nan(ind)
2.8	nan	-nan(ind)	-nan(ind)
2.801	nan	-nan(ind)	-nan(ind)
2.802	nan	-nan(ind)	-nan(ind)
2.803	nan	-nan(ind)	-nan(ind)
2.804	nan	-nan(ind)	-nan(ind)
2.805	nan	-nan(ind)	-nan(ind)
2.806	nan	-nan(ind)	-nan(ind)
2.807	nan	-nan(ind)	-nan(ind)
2.808	nan	-nan(ind)	-nan(ind)
2.809	nan	-nan(ind)	-nan(ind)
2.81	nan	-nan(ind)	-nan(ind)
2.811	nan	-nan(ind)	-nan(ind)
2.812	nan	-nan(ind)	-nan(ind)
2.813	nan	-nan(ind)	-nan(ind)
2.814	nan	-nan(ind)	-nan(ind)
2.815	nan	-nan(ind)	-nan(ind)
2.816	nan	-nan(ind)	-nan(ind)
2.817	nan	-nan(ind)	-nan(ind)
2.818	nan	-nan(ind)	-nan(ind)
2.819	nan	-nan(ind)	-nan(ind)
2.82	nan	-nan(ind)	-nan(ind)
2.821	nan	-nan(ind)	-nan(ind)
2.822	nan	-nan(ind)	-nan(ind)
2.823	nan	-nan(ind)	-nan(ind)
2.824	nan	-nan(ind)	-nan(ind)
2.825	nan	-nan(ind)	-nan(ind)
2.826	nan	-nan(ind)	-nan(ind)
2.827	nan	-nan(ind)	-nan(ind)
2.828	nan	-nan(ind)	-nan(ind)
2.829	nan	-nan(ind)	-nan(ind)
2.83	nan	-nan(ind)	-nan(ind)
2.831	nan	-nan(ind)	-nan(ind)
2.832	nan	-nan(ind)	-nan(ind)
2.833	nan	-nan(ind)	-nan(ind)
2.834	nan	-nan(ind)	-nan(ind)
2.835	nan	-nan(ind)	-nan(ind)
2.836	nan	-nan(ind)	-nan(ind)
2.837	nan	-nan(ind)	-nan(ind)
2.838	nan	-nan(ind)	-nan(ind)
2.839	nan	-nan(ind)	-nan(ind)
2.84	nan	-nan(ind)	-nan(ind)
2.841	nan	-nan(ind)	-nan(ind)
2.842	nan	-nan(ind)	-nan(ind)
2.843	nan	-nan(ind)	-nan(ind)
2.844	nan	-nan(ind)	-nan(ind)
2.845	nan	-nan(ind)	-nan(ind)
2.846	nan	-nan(ind)	-nan(ind)
2.847	nan	-nan(ind)	-nan(ind)
2.848	nan	-nan(ind)	-nan(ind)
2.849	nan	-nan(ind)	-nan(ind)
2.85	nan	-nan(ind)	-nan(ind)
2.851	nan	-nan(ind)	-nan(ind)
2.852	nan	-nan(ind)	-nan(ind)
2.853	nan	-nan(ind)	-nan(ind)
2.854	nan	-nan(ind)	-nan(ind)
2.855	nan	-nan(ind)	-nan(ind)
2.856	nan	-nan(ind)	-nan(ind)
2.857	nan	-nan(ind)	-nan(ind)
2.858	nan	-nan(ind)	-nan(ind)
2.859	nan	-nan(ind)	-nan(ind)
2.86	nan	-nan(ind)	-nan(ind)
2.861	nan	-nan(ind)	-nan(ind)
2.862	nan	-nan(ind)	-nan(ind)
2.863	nan	-nan(ind)	-nan(ind)
2.864	nan	-nan(ind)	-nan(ind)
2.865	nan	-nan(ind)	-nan(ind)
2.866	nan	-nan(ind)	-nan(ind)
2.867	nan	-nan(ind)	-nan(ind)
2.868	nan	-nan(ind)	-nan(ind)
2.869	nan	-nan(ind)	-nan(ind)
2.87	nan	-nan(ind)	-nan(ind)
2.871	nan	-nan(ind)	-nan(ind)
2.872	nan	-nan(ind)	-nan(ind)
2.873	nan	-nan(ind)	-nan(ind)
2.874	nan	-nan(ind)	-nan(ind)
2.875	nan	-nan(ind)	-nan(ind)
2.876	nan	-nan(ind)	-nan(ind)
2.877	nan	-nan(ind)	-nan(ind)
2.878	nan	-nan(ind)	-nan(ind)
2.879	nan	-nan(ind)	-nan(ind)
2.88	nan	-nan(ind)	-nan(ind)
2.881	nan	-nan(ind)	-nan(ind)
2.882	nan	-nan(ind)	-nan(ind)
2.883	nan	-nan(ind)	-nan(ind)
2.884	nan	-nan(ind)	-nan(ind)
2.885	nan	-nan(ind)	-nan(ind)
2.886	nan	-nan(ind)	-nan(ind)
2.887	nan	-nan(ind)	-nan(ind)
2.888	nan	-nan(ind)	-nan(ind)
2.889	nan	-nan(ind)	-nan(ind)
2.89	nan	-nan(ind)	-nan(ind)
2.891	nan	-nan(ind)	-nan(ind)
2.892	nan	-nan(ind)	-nan(ind)
2.893	nan	-nan(ind)	-nan(ind)
2.894	nan	-nan(ind)	-nan(ind)
2.895	nan	-nan(ind)	-nan(ind)
2.896	nan	-nan(ind)	-nan(ind)
2.897	nan	-nan(ind)	-nan(ind)
2.898	nan	-nan(ind)	-nan(ind)
2.899	nan	-nan(ind)	-nan(ind)
2.9	nan	-nan(ind)	-nan(ind)
2.901	nan	-nan(ind)	-nan(ind)
2.902	nan	-nan(ind)	-nan(ind)
2.903	nan	-nan(ind)	-nan(ind)
2.904	nan	-nan(ind)	-nan(ind)
2.905	nan	-nan(ind)	-nan(ind)
2.906	nan	-nan(ind)	-nan(ind)
2.907	nan	-nan(ind)	-nan(ind)
2.908	nan	-nan(ind)	-nan(ind)
2.909	nan	-nan(ind)	-nan(ind)
2.91	nan	-nan(ind)	-nan(ind)
2.911	nan	-nan(ind)	-nan(ind)
2.912	nan	-nan(ind)	-nan(ind)
2.913	nan	-nan(ind)	-nan(ind)
2.914	nan	-nan(ind)	-nan(ind)
2.915	nan	-nan(ind)	-nan(ind)
2.916	nan	-nan(ind)	-nan(ind)
2.917	nan	-nan(ind)	-nan(ind)
2.918	nan	-nan(ind)	-nan(ind)
2.919	nan	-nan(ind)	-nan(ind)
2.92	nan	-nan(ind)	-nan(ind)
2.921	nan	-nan(ind)	-nan(ind)
2.922	nan	-nan(ind)	-nan(ind)
2.923	nan	-nan(ind)	-nan(ind)
2.924	nan	-nan(ind)	-nan(ind)
2.925	nan	-nan(ind)	-nan(ind)
2.926	nan	-nan(ind)	-nan(ind)
2.927	nan	-nan(ind)	-nan(ind)
2.928	nan	-nan(ind)	-nan(ind)
2.929	nan	-nan(ind)	-nan(ind)
2.93	nan	-nan(ind)	-nan(ind)
2.931	nan	-nan(ind)	-nan(ind)
2.932	nan	-nan(ind)	-nan(ind)
2.933	nan	-nan(ind)	-nan(ind)
2.934	nan	-nan(ind)	-nan(ind)
2.935	nan	-nan(ind)	-nan(ind)
2.936	nan	-nan(ind)	-nan(ind)
2.937	nan	-nan(ind)	-nan(ind)
2.938	nan	-nan(ind)	-nan(ind)
2.939	nan	-nan(ind)	-nan(ind)
2.94	nan	-nan(ind)	-nan(ind)
2.941	nan	-nan(ind)	-nan(ind)
2.942	nan	-nan(ind)	-nan(ind)
2.943	nan	-nan(ind)	-nan(ind)
2.944	nan	-nan(ind)	-nan(ind)
2.945	nan	-nan(ind)	-nan(ind)
2.946	nan	-nan(ind)	-nan(ind)
2.947	nan	-nan(ind)	-nan(ind)
2.948	nan	-nan(ind)	-nan(ind)
2.949	nan	-nan(ind)	-nan(ind)
2.95	nan	-nan(ind)	-nan(ind)
2.951	nan	-nan(ind)	-nan(ind)
2.952	nan	-nan(ind)	-nan(ind)
2.953	nan	-nan(ind)	-nan(ind)
2.954	nan	-nan(ind)	-nan(ind)
2.955	nan	-nan(ind)	-nan(ind)
2.956	nan	-nan(ind)	-nan(ind)
2.957	nan	-nan(ind)	-nan(ind)
2.958	nan	-nan(ind)	-nan(ind)
2.959	nan	-nan(ind)	-nan(ind)
2.96	nan	-nan(ind)	-nan(ind)
2.961	nan	-nan(ind)	-nan(ind)
2.962	nan	-nan(ind)	-nan(ind)
2.963	nan	-nan(ind)	-nan(ind)
2.964	nan	-nan(ind)	-nan(ind)
2.965	nan	-nan(ind)	-nan(ind)
2.966	nan	-nan(ind)	-nan(ind)
2.967	nan	-nan(ind)	-nan(ind)
2.968	nan	-nan(ind)	-nan(ind)
2.969	nan	-nan(ind)	-nan(ind)
2.97	nan	-nan(ind)	-nan(ind)
2.971	nan	-nan(ind)	-nan(ind)
2.972	nan	-nan(ind)	-nan(ind)
2.973	nan	-nan(ind)	-nan(ind)
2.974	nan	-nan(ind)	-nan(ind)
2.975	nan	-nan(ind)	-nan(ind)
2.976	nan	-nan(ind)	-nan(ind)
2.977	nan	-nan(ind)	-nan(ind)
2.978	nan	-nan(ind)	-nan(ind)
2.979	nan	-nan(ind)	-nan(ind)
2.98	nan	-nan(ind)	-nan(ind)
2.981	nan	-nan(ind)	-nan(ind)
2.982	nan	-nan(ind)	-nan(ind)
2.983	nan	-nan(ind)	-nan(ind)
2.984	nan	-nan(ind)	-nan(ind)
2.985	nan	-nan(ind)	-nan(ind)
2.986	nan	-nan(ind)	-nan(ind)
2.987	nan	-nan(ind)	-nan(ind)
2.988	nan	-nan(ind)	-nan(ind)
2.989	nan	-nan(ind)	-nan(ind)
2.99	nan	-nan(ind)	-nan(ind)
2.991	nan	-nan(ind)	-nan(ind)
2.992	nan	-nan(ind)	-nan(ind)
2.993	nan	-nan(ind)	-nan(ind)
2.994	nan	-nan(ind)	-nan(ind)
2.995	nan	-nan(ind)	-nan(ind)
2.996	nan	-nan(ind)	-nan(ind)
2.997	nan	-nan(ind)	-nan(ind)
2.998	nan	-nan(ind)	-nan(ind)
2.999	nan	-nan(ind)	-nan(ind)
3	nan	-nan(ind)	-nan(ind)
